<?xml version="1.0" encoding="UTF-8"?>
<gpx creator="https://gpx.studio" version="1.1" schemaLocation="http://www.topografix.com/GPX/1/1 http://www.topografix.com/GPX/1/1/gpx.xsd http://www.garmin.com/xmlschemas/GpxExtensions/v3 http://www.garmin.com/xmlschemas/GpxExtensionsv3.xsd http://www.garmin.com/xmlschemas/TrackPointExtension/v1 http://www.garmin.com/xmlschemas/TrackPointExtensionv1.xsd http://www.garmin.com/xmlschemas/PowerExtension/v1 http://www.garmin.com/xmlschemas/PowerExtensionv1.xsd http://www.topografix.com/GPX/gpx_style/0/2 http://www.topografix.com/GPX/gpx_style/0/2/gpx_style.xsd" xmlns="http://www.topografix.com/GPX/1/1" xmlns:xsi="http://www.w3.org/2001/XMLSchema-instance" xsi:schemaLocation="http://www.topografix.com/GPX/1/1 http://www.topografix.com/GPX/1/1/gpx.xsd http://www.garmin.com/xmlschemas/GpxExtensions/v3 http://www.garmin.com/xmlschemas/GpxExtensionsv3.xsd http://www.garmin.com/xmlschemas/TrackPointExtension/v1 http://www.garmin.com/xmlschemas/TrackPointExtensionv1.xsd http://www.garmin.com/xmlschemas/PowerExtension/v1 http://www.garmin.com/xmlschemas/PowerExtensionv1.xsd http://www.topografix.com/GPX/gpx_style/0/2 http://www.topografix.com/GPX/gpx_style/0/2/gpx_style.xsd" xmlns:gpxtpx="http://www.garmin.com/xmlschemas/TrackPointExtension/v1" xmlns:gpxx="http://www.garmin.com/xmlschemas/GpxExtensions/v3" xmlns:gpxpx="http://www.garmin.com/xmlschemas/PowerExtension/v1" xmlns:gpx_style="http://www.topografix.com/GPX/gpx_style/0/2">
  <metadata>
    <name>Trailrun 10,5km</name>
    <author>
      <name>gpx.studio</name>
      <link href="https://gpx.studio"/>
    </author>
  </metadata>
  <trk>
    <name>Trailrun 10,5km</name>
    <trkseg>
      <trkpt lat="49.054876677258505" lon="10.663806172341822">
        <ele>466.8463759087175</ele>
      </trkpt>
      <trkpt lat="49.05483167022564" lon="10.66351189632249">
        <ele>466.3880501531338</ele>
      </trkpt>
      <trkpt lat="49.05483167022564" lon="10.66351189632249">
        <ele>466.3880501531338</ele>
      </trkpt>
      <trkpt lat="49.05481258028013" lon="10.663477506756692">
        <ele>466.3130512285014</ele>
      </trkpt>
      <trkpt lat="49.05481258028013" lon="10.663477506756692">
        <ele>466.3130512285014</ele>
      </trkpt>
      <trkpt lat="49.054768302184925" lon="10.6634350255284">
        <ele>466.20320464633846</ele>
      </trkpt>
      <trkpt lat="49.054768302184925" lon="10.6634350255284">
        <ele>466.20320464633846</ele>
      </trkpt>
      <trkpt lat="49.05446038187145" lon="10.663456327163658">
        <ele>466.25244289095764</ele>
      </trkpt>
      <trkpt lat="49.05446038187145" lon="10.663456327163658">
        <ele>466.25244289095764</ele>
      </trkpt>
      <trkpt lat="49.05438718142099" lon="10.663344629046179">
        <ele>466.1323949700437</ele>
      </trkpt>
      <trkpt lat="49.05438718142099" lon="10.663344629046179">
        <ele>466.1323949700437</ele>
      </trkpt>
      <trkpt lat="49.05428241916401" lon="10.66267736653335">
        <ele>465.8456091778827</ele>
      </trkpt>
      <trkpt lat="49.05421815613377" lon="10.66226805584958">
        <ele>467.1820817736392</ele>
      </trkpt>
      <trkpt lat="49.05447234759552" lon="10.662158045839277">
        <ele>466.5851694619425</ele>
      </trkpt>
      <trkpt lat="49.05447234759552" lon="10.662158045839277">
        <ele>466.5851694619425</ele>
      </trkpt>
      <trkpt lat="49.05447234759552" lon="10.661788543334836">
        <ele>467.95665131786814</ele>
      </trkpt>
      <trkpt lat="49.05447234759552" lon="10.661788543334836">
        <ele>467.95665131786814</ele>
      </trkpt>
      <trkpt lat="49.05488764487635" lon="10.661525466028307">
        <ele>466.8968275938297</ele>
      </trkpt>
      <trkpt lat="49.055302942157184" lon="10.661262388721779">
        <ele>465.12898848761625</ele>
      </trkpt>
      <trkpt lat="49.05571823943802" lon="10.66099931141525">
        <ele>463.5306009440677</ele>
      </trkpt>
      <trkpt lat="49.05613353671885" lon="10.66073623410872">
        <ele>462.663571793121</ele>
      </trkpt>
      <trkpt lat="49.056437" lon="10.660544">
        <ele>462.0737558071039</ele>
      </trkpt>
      <trkpt lat="49.056437" lon="10.660544">
        <ele>463</ele>
      </trkpt>
      <trkpt lat="49.056201" lon="10.656274">
        <ele>471</ele>
      </trkpt>
      <trkpt lat="49.053851" lon="10.656729">
        <ele>480.75</ele>
      </trkpt>
      <trkpt lat="49.048604" lon="10.655633">
        <ele>504</ele>
      </trkpt>
      <trkpt lat="49.047719" lon="10.660265">
        <ele>513</ele>
      </trkpt>
      <trkpt lat="49.045017" lon="10.661974">
        <ele>524.25</ele>
      </trkpt>
      <trkpt lat="49.044695" lon="10.663425">
        <ele>526.75</ele>
      </trkpt>
      <trkpt lat="49.043806" lon="10.663161">
        <ele>530.25</ele>
      </trkpt>
      <trkpt lat="49.043181" lon="10.663858">
        <ele>537</ele>
      </trkpt>
      <trkpt lat="49.042497" lon="10.663291">
        <ele>536.5</ele>
      </trkpt>
      <trkpt lat="49.041661" lon="10.667653">
        <ele>578</ele>
      </trkpt>
      <trkpt lat="49.041203" lon="10.672869">
        <ele>575.75</ele>
      </trkpt>
      <trkpt lat="49.036809" lon="10.678554">
        <ele>549.25</ele>
      </trkpt>
      <trkpt lat="49.036496" lon="10.682567">
        <ele>534</ele>
      </trkpt>
      <trkpt lat="49.036496" lon="10.682567">
        <ele>542.0280750477928</ele>
      </trkpt>
      <trkpt lat="49.03619172014254" lon="10.682746000490226">
        <ele>540.1050191093236</ele>
      </trkpt>
      <trkpt lat="49.03619172014254" lon="10.682746000490226">
        <ele>540.1050191093236</ele>
      </trkpt>
      <trkpt lat="49.03613019161102" lon="10.683010520044888">
        <ele>539.7560043541721</ele>
      </trkpt>
      <trkpt lat="49.03613019161102" lon="10.683010520044888">
        <ele>539.7560043541721</ele>
      </trkpt>
      <trkpt lat="49.036220599924455" lon="10.6836824080499">
        <ele>540.7496036228736</ele>
      </trkpt>
      <trkpt lat="49.03627269484139" lon="10.684069562156452">
        <ele>537.8401750615021</ele>
      </trkpt>
      <trkpt lat="49.03627269484139" lon="10.684069562156452">
        <ele>537.8401750615021</ele>
      </trkpt>
      <trkpt lat="49.036574132694255" lon="10.684578518023407">
        <ele>527.9384388778045</ele>
      </trkpt>
      <trkpt lat="49.03659920622587" lon="10.684620852855943">
        <ele>526.6254200718278</ele>
      </trkpt>
      <trkpt lat="49.03659920622587" lon="10.684620852855943">
        <ele>526.6254200718278</ele>
      </trkpt>
      <trkpt lat="49.03691685743348" lon="10.68480336960269">
        <ele>527.5061569951913</ele>
      </trkpt>
      <trkpt lat="49.03691685743348" lon="10.68480336960269">
        <ele>527.5061569951913</ele>
      </trkpt>
      <trkpt lat="49.03703223697033" lon="10.685068453446178">
        <ele>527.075104111541</ele>
      </trkpt>
      <trkpt lat="49.03703223697033" lon="10.685068453446178">
        <ele>527.075104111541</ele>
      </trkpt>
      <trkpt lat="49.03707781893493" lon="10.685676842628709">
        <ele>522.4584579974181</ele>
      </trkpt>
      <trkpt lat="49.03707781893493" lon="10.685676842628709">
        <ele>522.4584579974181</ele>
      </trkpt>
      <trkpt lat="49.03709129938041" lon="10.686362441247935">
        <ele>517.594985805582</ele>
      </trkpt>
      <trkpt lat="49.03710477982588" lon="10.687048039867161">
        <ele>515.0915070996898</ele>
      </trkpt>
      <trkpt lat="49.03711258816989" lon="10.68744516249069">
        <ele>514.2146448659716</ele>
      </trkpt>
      <trkpt lat="49.03711258816989" lon="10.68744516249069">
        <ele>514.2146448659716</ele>
      </trkpt>
      <trkpt lat="49.037058461413295" lon="10.68812608175046">
        <ele>513.9365588813974</ele>
      </trkpt>
      <trkpt lat="49.03703655872573" lon="10.688401619446381">
        <ele>514.4236133904662</ele>
      </trkpt>
      <trkpt lat="49.03688739949189" lon="10.689048683830265">
        <ele>511.65556912410767</ele>
      </trkpt>
      <trkpt lat="49.036738240258046" lon="10.689695748214147">
        <ele>503.97889850289835</ele>
      </trkpt>
      <trkpt lat="49.0365890810242" lon="10.69034281259803">
        <ele>499.05358507828737</ele>
      </trkpt>
      <trkpt lat="49.03643992179036" lon="10.690989876981913">
        <ele>495.9403715794981</ele>
      </trkpt>
      <trkpt lat="49.03629076255652" lon="10.691636941365797">
        <ele>493.62212666791265</ele>
      </trkpt>
      <trkpt lat="49.03621106490837" lon="10.691982675976163">
        <ele>492.65394790343055</ele>
      </trkpt>
      <trkpt lat="49.03621106490837" lon="10.691982675976163">
        <ele>492.65394790343055</ele>
      </trkpt>
      <trkpt lat="49.03665837876428" lon="10.691912697766927">
        <ele>492.9068453066761</ele>
      </trkpt>
      <trkpt lat="49.03710569262019" lon="10.691842719557691">
        <ele>493.5005303696977</ele>
      </trkpt>
      <trkpt lat="49.037513" lon="10.691779">
        <ele>493.5008188304678</ele>
      </trkpt>
      <trkpt lat="49.037513" lon="10.691779">
        <ele>493.5</ele>
      </trkpt>
      <trkpt lat="49.038849" lon="10.688868">
        <ele>501.25</ele>
      </trkpt>
      <trkpt lat="49.043403" lon="10.6894">
        <ele>485.25</ele>
      </trkpt>
      <trkpt lat="49.046897" lon="10.687758">
        <ele>483</ele>
      </trkpt>
      <trkpt lat="49.046777" lon="10.691185">
        <ele>478.75</ele>
      </trkpt>
      <trkpt lat="49.051278" lon="10.689611">
        <ele>494.25</ele>
      </trkpt>
      <trkpt lat="49.051521" lon="10.692403">
        <ele>490.25</ele>
      </trkpt>
      <trkpt lat="49.052459" lon="10.695631">
        <ele>485</ele>
      </trkpt>
      <trkpt lat="49.053832" lon="10.696593">
        <ele>480.75</ele>
      </trkpt>
      <trkpt lat="49.053799" lon="10.695815">
        <ele>485.75</ele>
      </trkpt>
      <trkpt lat="49.054579" lon="10.695145">
        <ele>483.5</ele>
      </trkpt>
      <trkpt lat="49.054388" lon="10.693573">
        <ele>488.75</ele>
      </trkpt>
      <trkpt lat="49.054889" lon="10.691931">
        <ele>485.25</ele>
      </trkpt>
      <trkpt lat="49.053827" lon="10.683526">
        <ele>487.75</ele>
      </trkpt>
      <trkpt lat="49.053827" lon="10.683526">
        <ele>487.7257313605053</ele>
      </trkpt>
      <trkpt lat="49.05387725202394" lon="10.68284415552274">
        <ele>487.80000000000115</ele>
      </trkpt>
      <trkpt lat="49.05392750404788" lon="10.682162311045479">
        <ele>488.7000000000007</ele>
      </trkpt>
      <trkpt lat="49.053977756071816" lon="10.68148046656822">
        <ele>488.90000000000146</ele>
      </trkpt>
      <trkpt lat="49.054028008095756" lon="10.680798622090958">
        <ele>488.93232884183624</ele>
      </trkpt>
      <trkpt lat="49.054078260119695" lon="10.680116777613698">
        <ele>488.22908401571493</ele>
      </trkpt>
      <trkpt lat="49.05412851214363" lon="10.679434933136438">
        <ele>487.8399394979946</ele>
      </trkpt>
      <trkpt lat="49.05417876416757" lon="10.678753088659176">
        <ele>487.2491096598571</ele>
      </trkpt>
      <trkpt lat="49.054229016191506" lon="10.678071244181917">
        <ele>486.90000000000146</ele>
      </trkpt>
      <trkpt lat="49.054279268215446" lon="10.677389399704657">
        <ele>486.92840641429757</ele>
      </trkpt>
      <trkpt lat="49.054329520239385" lon="10.676707555227395">
        <ele>486.70495770163905</ele>
      </trkpt>
      <trkpt lat="49.054379772263324" lon="10.676025710750135">
        <ele>485.7567595911071</ele>
      </trkpt>
      <trkpt lat="49.054430024287264" lon="10.675343866272874">
        <ele>484.9770776899535</ele>
      </trkpt>
      <trkpt lat="49.0544802763112" lon="10.674662021795614">
        <ele>483.93639170201544</ele>
      </trkpt>
      <trkpt lat="49.05453052833514" lon="10.673980177318354">
        <ele>482.2647947059488</ele>
      </trkpt>
      <trkpt lat="49.05453901035983" lon="10.673865088984826">
        <ele>481.87782288984073</ele>
      </trkpt>
      <trkpt lat="49.05453901035983" lon="10.673865088984826">
        <ele>481.87782288984073</ele>
      </trkpt>
      <trkpt lat="49.0543111982839" lon="10.673273520269714">
        <ele>482.426819619537</ele>
      </trkpt>
      <trkpt lat="49.054190290530585" lon="10.672959554278322">
        <ele>482.03937464333154</ele>
      </trkpt>
      <trkpt lat="49.054190290530585" lon="10.672959554278322">
        <ele>482.03937464333154</ele>
      </trkpt>
      <trkpt lat="49.05434478546479" lon="10.672315180741263">
        <ele>481.4394361603662</ele>
      </trkpt>
      <trkpt lat="49.05437382758794" lon="10.67219405071387">
        <ele>480.9262172631495</ele>
      </trkpt>
      <trkpt lat="49.05437382758794" lon="10.67219405071387">
        <ele>480.9262172631495</ele>
      </trkpt>
      <trkpt lat="49.05445611670602" lon="10.671519491932425">
        <ele>479.09345455441115</ele>
      </trkpt>
      <trkpt lat="49.054499378030016" lon="10.671164860522168">
        <ele>478.46594555721765</ele>
      </trkpt>
      <trkpt lat="49.05451741469282" lon="10.670479265424815">
        <ele>477.62336467341527</ele>
      </trkpt>
      <trkpt lat="49.05453545135562" lon="10.669793670327461">
        <ele>476.05117904101144</ele>
      </trkpt>
      <trkpt lat="49.054540061583054" lon="10.669618430075872">
        <ele>475.7439767864855</ele>
      </trkpt>
      <trkpt lat="49.054540061583054" lon="10.669618430075872">
        <ele>475.7439767864855</ele>
      </trkpt>
      <trkpt lat="49.054540281449896" lon="10.668932282560709">
        <ele>474.24517985689613</ele>
      </trkpt>
      <trkpt lat="49.05454050131674" lon="10.668246135045546">
        <ele>473.7720414350751</ele>
      </trkpt>
      <trkpt lat="49.05454072118358" lon="10.667559987530385">
        <ele>473.04759960546426</ele>
      </trkpt>
      <trkpt lat="49.05454094105042" lon="10.666873840015223">
        <ele>471.6120137937354</ele>
      </trkpt>
      <trkpt lat="49.0545411092196" lon="10.666349027510904">
        <ele>470.93176340237346</ele>
      </trkpt>
      <trkpt lat="49.0545411092196" lon="10.666349027510904">
        <ele>470.93176340237346</ele>
      </trkpt>
      <trkpt lat="49.0545411092196" lon="10.666349027510904">
        <ele>470.93176340237346</ele>
      </trkpt>
      <trkpt lat="49.05424731203692" lon="10.666034200946086">
        <ele>470.92698752930403</ele>
      </trkpt>
      <trkpt lat="49.05424731203692" lon="10.666034200946086">
        <ele>470.92698752930403</ele>
      </trkpt>
      <trkpt lat="49.05419481564519" lon="10.66591661460555">
        <ele>471.1291771490136</ele>
      </trkpt>
      <trkpt lat="49.05419481564519" lon="10.66591661460555">
        <ele>471.1291771490136</ele>
      </trkpt>
      <trkpt lat="49.054129299648054" lon="10.665597555923824">
        <ele>471.00298178715104</ele>
      </trkpt>
      <trkpt lat="49.054129299648054" lon="10.665597555923824">
        <ele>471.00298178715104</ele>
      </trkpt>
      <trkpt lat="49.05410406583465" lon="10.664912495476738">
        <ele>470.0365012663171</ele>
      </trkpt>
      <trkpt lat="49.054095844637146" lon="10.664689302210377">
        <ele>469.399833025691</ele>
      </trkpt>
      <trkpt lat="49.054095844637146" lon="10.664689302210377">
        <ele>469.399833025691</ele>
      </trkpt>
      <trkpt lat="49.05423942223234" lon="10.664540408158302">
        <ele>468.46965552801277</ele>
      </trkpt>
      <trkpt lat="49.05423942223234" lon="10.664540408158302">
        <ele>468.46965552801277</ele>
      </trkpt>
      <trkpt lat="49.054677666192994" lon="10.664386777591544">
        <ele>467.7334323327995</ele>
      </trkpt>
      <trkpt lat="49.05490787793482" lon="10.664306074687346">
        <ele>467.623393561808</ele>
      </trkpt>
      <trkpt lat="49.0549315475393" lon="10.664258532734749">
        <ele>467.5810103874722</ele>
      </trkpt>
      <trkpt lat="49.0549315475393" lon="10.664258532734749">
        <ele>467.5810103874722</ele>
      </trkpt>
      <trkpt lat="49.0549315475393" lon="10.664258532734749">
        <ele>467.5810103874722</ele>
      </trkpt>
      <trkpt lat="49.05487835526333" lon="10.663813099418064">
        <ele>466.858440921457</ele>
      </trkpt>
    </trkseg>
  </trk>
</gpx>
