<?xml version="1.0" encoding="UTF-8"?>
<gpx creator="CALTOPO" version="1.1" xmlns="http://www.topografix.com/GPX/1/1" xmlns:xsi="http://www.w3.org/2001/XMLSchema-instance" xsi:schemaLocation="http://www.topografix.com/GPX/1/1 http://www.topografix.com/GPX/1/1/gpx.xsd http://www.garmin.com/xmlschemas/GpxExtensions/v3 http://www.garmin.com/xmlschemas/GpxExtensionsv3.xsd http://www.garmin.com/xmlschemas/TrackPointExtension/v1 http://www.garmin.com/xmlschemas/TrackPointExtensionv1.xsd http://www.garmin.com/xmlschemas/PowerExtension/v1 http://www.garmin.com/xmlschemas/PowerExtensionv1.xsd http://www.topografix.com/GPX/gpx_style/0/2 http://www.topografix.com/GPX/gpx_style/0/2/gpx_style.xsd" xmlns:gpxtpx="http://www.garmin.com/xmlschemas/TrackPointExtension/v1" xmlns:gpxx="http://www.garmin.com/xmlschemas/GpxExtensions/v3" xmlns:gpxpx="http://www.garmin.com/xmlschemas/PowerExtension/v1" xmlns:gpx_style="http://www.topografix.com/GPX/gpx_style/0/2">
  <metadata>
    <name>Spielerei 24 km</name>
    <author>
      <name>gpx.studio</name>
      <link href="https://gpx.studio"/>
    </author>
  </metadata>
  <trk>
    <name>Spielerei 24 km</name>
    <trkseg>
      <trkpt lat="49.054879157394254" lon="10.663821071119287">
        <ele>466.871876673144</ele>
      </trkpt>
      <trkpt lat="49.054879157394254" lon="10.663821071119287">
        <ele>466.871876673144</ele>
      </trkpt>
      <trkpt lat="49.054878394798436" lon="10.663813209582344">
        <ele>466.85864648383557</ele>
      </trkpt>
      <trkpt lat="49.054878394798436" lon="10.663813209582344">
        <ele>466.85864648383557</ele>
      </trkpt>
      <trkpt lat="49.054835408170476" lon="10.663523276436564">
        <ele>466.40509234750783</ele>
      </trkpt>
      <trkpt lat="49.054835408170476" lon="10.663523276436564">
        <ele>466.40509234750783</ele>
      </trkpt>
      <trkpt lat="49.05478042143926" lon="10.66345081210767">
        <ele>466.2335933264859</ele>
      </trkpt>
      <trkpt lat="49.05478042143926" lon="10.66345081210767">
        <ele>466.2335933264859</ele>
      </trkpt>
      <trkpt lat="49.054459199071886" lon="10.663457191916848">
        <ele>466.2538023945915</ele>
      </trkpt>
      <trkpt lat="49.054459199071886" lon="10.663457191916848">
        <ele>466.2538023945915</ele>
      </trkpt>
      <trkpt lat="49.05438710969898" lon="10.663344623495107">
        <ele>466.1325097541594</ele>
      </trkpt>
      <trkpt lat="49.05438710969898" lon="10.663344623495107">
        <ele>466.1325097541594</ele>
      </trkpt>
      <trkpt lat="49.0542818743855" lon="10.662677534335993">
        <ele>465.847546216241</ele>
      </trkpt>
      <trkpt lat="49.05421738871448" lon="10.662268758131148">
        <ele>467.1811874036075</ele>
      </trkpt>
      <trkpt lat="49.05421738871448" lon="10.662268758131148">
        <ele>467.1811874036075</ele>
      </trkpt>
      <trkpt lat="49.05447118661664" lon="10.662160961314868">
        <ele>466.5745131900869</ele>
      </trkpt>
      <trkpt lat="49.05447118661664" lon="10.662160961314868">
        <ele>466.5745131900869</ele>
      </trkpt>
      <trkpt lat="49.05447313406765" lon="10.661783539438858">
        <ele>467.94919645500306</ele>
      </trkpt>
      <trkpt lat="49.05447313406765" lon="10.661783539438858">
        <ele>467.94919645500306</ele>
      </trkpt>
      <trkpt lat="49.05447278071366" lon="10.661783516407015">
        <ele>467.95029296875043</ele>
      </trkpt>
      <trkpt lat="49.05447278071366" lon="10.661783516407015">
        <ele>467.95029296875043</ele>
      </trkpt>
      <trkpt lat="49.054474" lon="10.661787">
        <ele>471.22</ele>
      </trkpt>
      <trkpt lat="49.05457" lon="10.661737">
        <ele>471.01</ele>
      </trkpt>
      <trkpt lat="49.055142" lon="10.661319">
        <ele>469.08</ele>
      </trkpt>
      <trkpt lat="49.055841" lon="10.660967">
        <ele>466.63</ele>
      </trkpt>
      <trkpt lat="49.056322" lon="10.660767">
        <ele>465.66</ele>
      </trkpt>
      <trkpt lat="49.056394" lon="10.66068">
        <ele>465.59</ele>
      </trkpt>
      <trkpt lat="49.056437" lon="10.660544">
        <ele>465.65</ele>
      </trkpt>
      <trkpt lat="49.056423" lon="10.660153">
        <ele>466.16</ele>
      </trkpt>
      <trkpt lat="49.056378" lon="10.658055">
        <ele>472.49</ele>
      </trkpt>
      <trkpt lat="49.056343" lon="10.657548">
        <ele>473.61</ele>
      </trkpt>
      <trkpt lat="49.056254" lon="10.657113">
        <ele>474.1</ele>
      </trkpt>
      <trkpt lat="49.056178" lon="10.656567">
        <ele>474.79</ele>
      </trkpt>
      <trkpt lat="49.056201" lon="10.656274">
        <ele>474.93</ele>
      </trkpt>
      <trkpt lat="49.055837" lon="10.65643">
        <ele>476.9</ele>
      </trkpt>
      <trkpt lat="49.054906" lon="10.65651">
        <ele>480.74</ele>
      </trkpt>
      <trkpt lat="49.054844" lon="10.656531">
        <ele>480.84</ele>
      </trkpt>
      <trkpt lat="49.054844" lon="10.656531">
        <ele>480.84</ele>
      </trkpt>
      <trkpt lat="49.054233" lon="10.656727">
        <ele>481.04</ele>
      </trkpt>
      <trkpt lat="49.053851" lon="10.656729">
        <ele>481.06</ele>
      </trkpt>
      <trkpt lat="49.0523" lon="10.656534">
        <ele>485.38</ele>
      </trkpt>
      <trkpt lat="49.0523" lon="10.656534">
        <ele>485.38</ele>
      </trkpt>
      <trkpt lat="49.051146" lon="10.656377">
        <ele>495.72</ele>
      </trkpt>
      <trkpt lat="49.051146" lon="10.656377">
        <ele>495.72</ele>
      </trkpt>
      <trkpt lat="49.050834" lon="10.656334">
        <ele>498.92</ele>
      </trkpt>
      <trkpt lat="49.050742" lon="10.656167">
        <ele>499.11</ele>
      </trkpt>
      <trkpt lat="49.050834" lon="10.656334">
        <ele>498.92</ele>
      </trkpt>
      <trkpt lat="49.050903" lon="10.656343">
        <ele>498.21</ele>
      </trkpt>
      <trkpt lat="49.050903" lon="10.656343">
        <ele>498.21</ele>
      </trkpt>
      <trkpt lat="49.050903" lon="10.656343">
        <ele>498.21</ele>
      </trkpt>
      <trkpt lat="49.050834" lon="10.656334">
        <ele>498.92</ele>
      </trkpt>
      <trkpt lat="49.050606" lon="10.65592">
        <ele>499.38</ele>
      </trkpt>
      <trkpt lat="49.050412" lon="10.655811">
        <ele>500.48</ele>
      </trkpt>
      <trkpt lat="49.050277" lon="10.655792">
        <ele>501.01</ele>
      </trkpt>
      <trkpt lat="49.050277" lon="10.655792">
        <ele>501.01</ele>
      </trkpt>
      <trkpt lat="49.04977" lon="10.655721">
        <ele>503.02</ele>
      </trkpt>
      <trkpt lat="49.04977" lon="10.655721">
        <ele>503.02</ele>
      </trkpt>
      <trkpt lat="49.048604" lon="10.655633">
        <ele>504.45</ele>
      </trkpt>
      <trkpt lat="49.04815" lon="10.657648">
        <ele>508.99</ele>
      </trkpt>
      <trkpt lat="49.048116" lon="10.658012">
        <ele>509.44</ele>
      </trkpt>
      <trkpt lat="49.048183" lon="10.658857">
        <ele>510.97</ele>
      </trkpt>
      <trkpt lat="49.048137" lon="10.659402">
        <ele>512.34</ele>
      </trkpt>
      <trkpt lat="49.048099" lon="10.659534">
        <ele>512.71</ele>
      </trkpt>
      <trkpt lat="49.048099" lon="10.659534">
        <ele>512.71</ele>
      </trkpt>
      <trkpt lat="49.048016" lon="10.659818">
        <ele>513.49</ele>
      </trkpt>
      <trkpt lat="49.048014048754936" lon="10.65981644727131">
        <ele>516.6953702556218</ele>
      </trkpt>
      <trkpt lat="49.04772" lon="10.66027">
        <ele>517.9311462240779</ele>
      </trkpt>
      <trkpt lat="49.04772" lon="10.66027">
        <ele>517.9311462240779</ele>
      </trkpt>
      <trkpt lat="49.04743" lon="10.66046">
        <ele>519.2257348404273</ele>
      </trkpt>
      <trkpt lat="49.04647" lon="10.66079">
        <ele>524.2519926022746</ele>
      </trkpt>
      <trkpt lat="49.04533" lon="10.66167">
        <ele>529.3114356001341</ele>
      </trkpt>
      <trkpt lat="49.04502" lon="10.66197">
        <ele>529.8784261037841</ele>
      </trkpt>
      <trkpt lat="49.04486" lon="10.66229">
        <ele>530.0452018040239</ele>
      </trkpt>
      <trkpt lat="49.04475" lon="10.66268">
        <ele>530.8359363092584</ele>
      </trkpt>
      <trkpt lat="49.04474387323149" lon="10.662771901527682">
        <ele>531.1742736109069</ele>
      </trkpt>
      <trkpt lat="49.04474387323422" lon="10.662771901527682">
        <ele>531.1742736075012</ele>
      </trkpt>
      <trkpt lat="49.0447" lon="10.66343">
        <ele>532.2196206862203</ele>
      </trkpt>
      <trkpt lat="49.0447" lon="10.66343">
        <ele>532.2196206862203</ele>
      </trkpt>
      <trkpt lat="49.04381" lon="10.66316">
        <ele>539.4207851355438</ele>
      </trkpt>
      <trkpt lat="49.04318" lon="10.66386">
        <ele>539.2766336000535</ele>
      </trkpt>
      <trkpt lat="49.04309" lon="10.66367">
        <ele>537.6972894816871</ele>
      </trkpt>
      <trkpt lat="49.0428" lon="10.66339">
        <ele>538.4220757963313</ele>
      </trkpt>
      <trkpt lat="49.0425" lon="10.66329">
        <ele>541.5711467816503</ele>
      </trkpt>
      <trkpt lat="49.04227496545725" lon="10.664005288368012">
        <ele>552.5565516004626</ele>
      </trkpt>
      <trkpt lat="49.04227496558158" lon="10.664005288368012">
        <ele>552.5565513058149</ele>
      </trkpt>
      <trkpt lat="49.04222" lon="10.66418">
        <ele>554.4320767998238</ele>
      </trkpt>
      <trkpt lat="49.04201" lon="10.66625">
        <ele>581.6937607222586</ele>
      </trkpt>
      <trkpt lat="49.04166" lon="10.66765">
        <ele>583.6196686411951</ele>
      </trkpt>
      <trkpt lat="49.04176" lon="10.6707">
        <ele>585.1353192512111</ele>
      </trkpt>
      <trkpt lat="49.0412" lon="10.67287">
        <ele>579.0196157174191</ele>
      </trkpt>
      <trkpt lat="49.04098979992998" lon="10.67315945577172">
        <ele>583.9647785938456</ele>
      </trkpt>
      <trkpt lat="49.04098979992998" lon="10.67315945577172">
        <ele>583.9647785938456</ele>
      </trkpt>
      <trkpt lat="49.04059" lon="10.67371">
        <ele>587.1191466745702</ele>
      </trkpt>
      <trkpt lat="49.040368721992444" lon="10.673945709258993">
        <ele>588.0445800105344</ele>
      </trkpt>
      <trkpt lat="49.040368721992444" lon="10.673945709258993">
        <ele>588.0445800105344</ele>
      </trkpt>
      <trkpt lat="49.04013" lon="10.6742">
        <ele>583.7208700629341</ele>
      </trkpt>
      <trkpt lat="49.03887" lon="10.67534">
        <ele>596.8103394080476</ele>
      </trkpt>
      <trkpt lat="49.0383" lon="10.6766">
        <ele>601.461069177953</ele>
      </trkpt>
      <trkpt lat="49.03787" lon="10.67709">
        <ele>593.6541162665942</ele>
      </trkpt>
      <trkpt lat="49.03787" lon="10.67709">
        <ele>593.6541162665942</ele>
      </trkpt>
      <trkpt lat="49.03716" lon="10.67838">
        <ele>564.4967620875922</ele>
      </trkpt>
      <trkpt lat="49.03681" lon="10.67855">
        <ele>557.4809792257287</ele>
      </trkpt>
      <trkpt lat="49.03682" lon="10.67871">
        <ele>557.0630201980013</ele>
      </trkpt>
      <trkpt lat="49.03682" lon="10.67871">
        <ele>557.0630201980013</ele>
      </trkpt>
      <trkpt lat="49.03684" lon="10.6792">
        <ele>552.3467967132583</ele>
      </trkpt>
      <trkpt lat="49.03652" lon="10.68082">
        <ele>537.3891820348429</ele>
      </trkpt>
      <trkpt lat="49.03653" lon="10.6814">
        <ele>539.0643288081056</ele>
      </trkpt>
      <trkpt lat="49.0366" lon="10.68184">
        <ele>541.6446524133445</ele>
      </trkpt>
      <trkpt lat="49.0366" lon="10.68184">
        <ele>541.6446524133445</ele>
      </trkpt>
      <trkpt lat="49.03656" lon="10.68244">
        <ele>542.3374553052217</ele>
      </trkpt>
      <trkpt lat="49.0365" lon="10.68257">
        <ele>542.0404085713452</ele>
      </trkpt>
      <trkpt lat="49.0364" lon="10.68269">
        <ele>541.4734632414301</ele>
      </trkpt>
      <trkpt lat="49.0362" lon="10.68275">
        <ele>540.1785929061006</ele>
      </trkpt>
      <trkpt lat="49.0362" lon="10.68275">
        <ele>540.1785929061006</ele>
      </trkpt>
      <trkpt lat="49.03613" lon="10.683">
        <ele>539.7452655097477</ele>
      </trkpt>
      <trkpt lat="49.03613" lon="10.68327">
        <ele>540.157905088565</ele>
      </trkpt>
      <trkpt lat="49.03613624775639" lon="10.683311235192173">
        <ele>540.2254910976118</ele>
      </trkpt>
      <trkpt lat="49.036136247759146" lon="10.683311235192173">
        <ele>540.2254911249797</ele>
      </trkpt>
      <trkpt lat="49.03618" lon="10.6836">
        <ele>540.5048797926866</ele>
      </trkpt>
      <trkpt lat="49.03627" lon="10.68407">
        <ele>537.7896599277852</ele>
      </trkpt>
      <trkpt lat="49.03646" lon="10.68441">
        <ele>532.331551758799</ele>
      </trkpt>
      <trkpt lat="49.0366" lon="10.68463">
        <ele>526.255591367345</ele>
      </trkpt>
      <trkpt lat="49.03692" lon="10.6848">
        <ele>527.689994424324</ele>
      </trkpt>
      <trkpt lat="49.03703" lon="10.68506">
        <ele>527.0814622898492</ele>
      </trkpt>
      <trkpt lat="49.03712" lon="10.6857">
        <ele>523.512024365849</ele>
      </trkpt>
      <trkpt lat="49.03715" lon="10.68746">
        <ele>515.0898393914913</ele>
      </trkpt>
      <trkpt lat="49.03715" lon="10.68746">
        <ele>515.0898393914913</ele>
      </trkpt>
      <trkpt lat="49.037083236342234" lon="10.687988973932347">
        <ele>514.3170898137621</ele>
      </trkpt>
      <trkpt lat="49.03702" lon="10.68849">
        <ele>514.147577760975</ele>
      </trkpt>
      <trkpt lat="49.03684" lon="10.68935">
        <ele>509.6499836442404</ele>
      </trkpt>
      <trkpt lat="49.03664" lon="10.69006">
        <ele>500.7045984103822</ele>
      </trkpt>
      <trkpt lat="49.03619" lon="10.69199">
        <ele>492.6523782351864</ele>
      </trkpt>
      <trkpt lat="49.03619" lon="10.69199">
        <ele>492.6523782351864</ele>
      </trkpt>
      <trkpt lat="49.03628" lon="10.69218">
        <ele>492.0647919162521</ele>
      </trkpt>
      <trkpt lat="49.03628" lon="10.69218">
        <ele>492.0647919162521</ele>
      </trkpt>
      <trkpt lat="49.03628392550749" lon="10.69227637488504">
        <ele>491.8246433785245</ele>
      </trkpt>
      <trkpt lat="49.03628392550749" lon="10.692279224732317">
        <ele>491.8208206716079</ele>
      </trkpt>
      <trkpt lat="49.036284035407505" lon="10.692282074579595">
        <ele>491.81662984212124</ele>
      </trkpt>
      <trkpt lat="49.03631279576668" lon="10.692966567805566">
        <ele>490.0852344171942</ele>
      </trkpt>
      <trkpt lat="49.03634155612587" lon="10.69365106103154">
        <ele>489.1929676401581</ele>
      </trkpt>
      <trkpt lat="49.03637031648505" lon="10.694335554257512">
        <ele>490.2463972683772</ele>
      </trkpt>
      <trkpt lat="49.03639907684423" lon="10.695020047483485">
        <ele>491.79249448632</ele>
      </trkpt>
      <trkpt lat="49.03642783720341" lon="10.695704540709457">
        <ele>493.5385917337613</ele>
      </trkpt>
      <trkpt lat="49.0364565975626" lon="10.696389033935429">
        <ele>495.3926591307481</ele>
      </trkpt>
      <trkpt lat="49.03648535792178" lon="10.697073527161402">
        <ele>498.1992538738274</ele>
      </trkpt>
      <trkpt lat="49.03651411828096" lon="10.697758020387374">
        <ele>504.61956531158364</ele>
      </trkpt>
      <trkpt lat="49.03654287864014" lon="10.698442513613347">
        <ele>509.9757617836909</ele>
      </trkpt>
      <trkpt lat="49.03656" lon="10.69885">
        <ele>511.23660977672193</ele>
      </trkpt>
      <trkpt lat="49.03656" lon="10.69885">
        <ele>511.23660977672193</ele>
      </trkpt>
      <trkpt lat="49.03662" lon="10.69963">
        <ele>513.5928436515338</ele>
      </trkpt>
      <trkpt lat="49.03672" lon="10.7005">
        <ele>516.3602423822527</ele>
      </trkpt>
      <trkpt lat="49.03672" lon="10.70068">
        <ele>516.8879939181977</ele>
      </trkpt>
      <trkpt lat="49.03672" lon="10.70068">
        <ele>516.8879939181977</ele>
      </trkpt>
      <trkpt lat="49.03670115211621" lon="10.70197108003982">
        <ele>526.1539031766995</ele>
      </trkpt>
      <trkpt lat="49.0367011521164" lon="10.701971080039822">
        <ele>526.1539031840333</ele>
      </trkpt>
      <trkpt lat="49.0367" lon="10.70205">
        <ele>527.2615287775038</ele>
      </trkpt>
      <trkpt lat="49.0367" lon="10.70205">
        <ele>527.2615287775038</ele>
      </trkpt>
      <trkpt lat="49.03671664730368" lon="10.702271674198983">
        <ele>531.6741157683084</ele>
      </trkpt>
      <trkpt lat="49.03671664730368" lon="10.702271674198983">
        <ele>531.6741157683084</ele>
      </trkpt>
      <trkpt lat="49.03714043628167" lon="10.702500976192658">
        <ele>542.1559723802383</ele>
      </trkpt>
      <trkpt lat="49.03746097386909" lon="10.702674411349449">
        <ele>544.4035064047273</ele>
      </trkpt>
      <trkpt lat="49.03750844696032" lon="10.702870768899203">
        <ele>545.7411124893545</ele>
      </trkpt>
      <trkpt lat="49.03750844696032" lon="10.702870768899203">
        <ele>545.7411124893545</ele>
      </trkpt>
      <trkpt lat="49.037185080656606" lon="10.70334738635519">
        <ele>548.9047729067563</ele>
      </trkpt>
      <trkpt lat="49.036878" lon="10.7038">
        <ele>552.9534189295505</ele>
      </trkpt>
      <trkpt lat="49.036878" lon="10.7038">
        <ele>542.67</ele>
      </trkpt>
      <trkpt lat="49.036544" lon="10.704487">
        <ele>546.82</ele>
      </trkpt>
      <trkpt lat="49.036304" lon="10.705394">
        <ele>554.8</ele>
      </trkpt>
      <trkpt lat="49.036296" lon="10.706631">
        <ele>566.93</ele>
      </trkpt>
      <trkpt lat="49.036375" lon="10.707168">
        <ele>569.18</ele>
      </trkpt>
      <trkpt lat="49.036646" lon="10.707637">
        <ele>569.03</ele>
      </trkpt>
      <trkpt lat="49.036788" lon="10.708197">
        <ele>574.53</ele>
      </trkpt>
      <trkpt lat="49.037136" lon="10.708797">
        <ele>579.25</ele>
      </trkpt>
      <trkpt lat="49.03736" lon="10.709409">
        <ele>584.99</ele>
      </trkpt>
      <trkpt lat="49.03781" lon="10.709805">
        <ele>593.45</ele>
      </trkpt>
      <trkpt lat="49.03781" lon="10.7098">
        <ele>593.4</ele>
      </trkpt>
      <trkpt lat="49.03781" lon="10.7098">
        <ele>604.419351428143</ele>
      </trkpt>
      <trkpt lat="49.03781" lon="10.7098">
        <ele>604.419351428143</ele>
      </trkpt>
      <trkpt lat="49.03787" lon="10.70995">
        <ele>605.8884373333319</ele>
      </trkpt>
      <trkpt lat="49.03787" lon="10.70995">
        <ele>605.8884373333319</ele>
      </trkpt>
      <trkpt lat="49.03817" lon="10.7107">
        <ele>606.8314110072679</ele>
      </trkpt>
      <trkpt lat="49.03817" lon="10.7107">
        <ele>606.8314110072679</ele>
      </trkpt>
      <trkpt lat="49.03817" lon="10.7107">
        <ele>606.8314110072679</ele>
      </trkpt>
      <trkpt lat="49.03825" lon="10.71073">
        <ele>607.2639501438002</ele>
      </trkpt>
      <trkpt lat="49.03848583293251" lon="10.710713154790534">
        <ele>605.102039826522</ele>
      </trkpt>
      <trkpt lat="49.038485834032926" lon="10.710713154790533">
        <ele>605.1020222249444</ele>
      </trkpt>
      <trkpt lat="49.03895" lon="10.71068">
        <ele>603.5261176427834</ele>
      </trkpt>
      <trkpt lat="49.03945" lon="10.71048">
        <ele>603.0028212524097</ele>
      </trkpt>
      <trkpt lat="49.03965" lon="10.7105">
        <ele>601.3494724603896</ele>
      </trkpt>
      <trkpt lat="49.03978" lon="10.71071">
        <ele>601.070518080146</ele>
      </trkpt>
      <trkpt lat="49.03982" lon="10.71193">
        <ele>606.0572954821918</ele>
      </trkpt>
      <trkpt lat="49.03989" lon="10.71245">
        <ele>605.5011391045625</ele>
      </trkpt>
      <trkpt lat="49.03984" lon="10.71282">
        <ele>607.8833917165681</ele>
      </trkpt>
      <trkpt lat="49.03962" lon="10.71346">
        <ele>608.4271325461252</ele>
      </trkpt>
      <trkpt lat="49.03952" lon="10.71405">
        <ele>600.2219122935533</ele>
      </trkpt>
      <trkpt lat="49.03952" lon="10.71405">
        <ele>600.2219122935533</ele>
      </trkpt>
      <trkpt lat="49.03952" lon="10.71405">
        <ele>600.2219122935533</ele>
      </trkpt>
      <trkpt lat="49.03959401592358" lon="10.714304943736769">
        <ele>597.5925857768541</ele>
      </trkpt>
      <trkpt lat="49.03959401606941" lon="10.714304943736769">
        <ele>597.5925822262507</ele>
      </trkpt>
      <trkpt lat="49.03979" lon="10.71498">
        <ele>592.7411146129486</ele>
      </trkpt>
      <trkpt lat="49.03999" lon="10.71532">
        <ele>597.2070907773826</ele>
      </trkpt>
      <trkpt lat="49.04056" lon="10.71593">
        <ele>595.5225806291218</ele>
      </trkpt>
      <trkpt lat="49.0411" lon="10.71669">
        <ele>593.0314617555135</ele>
      </trkpt>
      <trkpt lat="49.04135" lon="10.71695">
        <ele>602.8584227345883</ele>
      </trkpt>
      <trkpt lat="49.04175" lon="10.7178">
        <ele>605.4049053028116</ele>
      </trkpt>
      <trkpt lat="49.041749" lon="10.717796">
        <ele>597.3</ele>
      </trkpt>
      <trkpt lat="49.041909" lon="10.717747">
        <ele>596.25</ele>
      </trkpt>
      <trkpt lat="49.042102" lon="10.717822">
        <ele>595.17</ele>
      </trkpt>
      <trkpt lat="49.042271" lon="10.718104">
        <ele>595.05</ele>
      </trkpt>
      <trkpt lat="49.042444" lon="10.718219">
        <ele>594.63</ele>
      </trkpt>
      <trkpt lat="49.042517" lon="10.718212">
        <ele>594.2</ele>
      </trkpt>
      <trkpt lat="49.042672" lon="10.718195">
        <ele>593.29</ele>
      </trkpt>
      <trkpt lat="49.042893" lon="10.717999">
        <ele>590.15</ele>
      </trkpt>
      <trkpt lat="49.042978" lon="10.717644">
        <ele>585.62</ele>
      </trkpt>
      <trkpt lat="49.043102" lon="10.717387">
        <ele>580.61</ele>
      </trkpt>
      <trkpt lat="49.043168" lon="10.717325">
        <ele>580.33</ele>
      </trkpt>
      <trkpt lat="49.04316925681002" lon="10.71732896875605">
        <ele>592.8338469330228</ele>
      </trkpt>
      <trkpt lat="49.04316925681002" lon="10.71732896875605">
        <ele>592.8338469330228</ele>
      </trkpt>
      <trkpt lat="49.04303550001907" lon="10.717926560882603">
        <ele>594.3095403385065</ele>
      </trkpt>
      <trkpt lat="49.042791975564484" lon="10.718503237475334">
        <ele>597.0337353023474</ele>
      </trkpt>
      <trkpt lat="49.04271543771475" lon="10.718684482461498">
        <ele>595.7380801686436</ele>
      </trkpt>
      <trkpt lat="49.04271543771475" lon="10.718684482461498">
        <ele>595.7380801686436</ele>
      </trkpt>
      <trkpt lat="49.04284680682616" lon="10.719118101092619">
        <ele>592.5466250222287</ele>
      </trkpt>
      <trkpt lat="49.04284680682616" lon="10.719118101092619">
        <ele>592.5466250222287</ele>
      </trkpt>
      <trkpt lat="49.043095817374635" lon="10.71968930200634">
        <ele>599.2042726478552</ele>
      </trkpt>
      <trkpt lat="49.04334482792311" lon="10.720260502920063">
        <ele>606.7332533636136</ele>
      </trkpt>
      <trkpt lat="49.04341" lon="10.72041">
        <ele>609.2784112003641</ele>
      </trkpt>
      <trkpt lat="49.04341" lon="10.72041">
        <ele>609.2784112003641</ele>
      </trkpt>
      <trkpt lat="49.04341" lon="10.72041">
        <ele>609.2784112003641</ele>
      </trkpt>
      <trkpt lat="49.04351" lon="10.72051">
        <ele>611.6464973261204</ele>
      </trkpt>
      <trkpt lat="49.04371" lon="10.72061">
        <ele>613.8356041988358</ele>
      </trkpt>
      <trkpt lat="49.043747060370414" lon="10.720640520305048">
        <ele>614.455572140577</ele>
      </trkpt>
      <trkpt lat="49.04374706041994" lon="10.720640520305048">
        <ele>614.4555720072378</ele>
      </trkpt>
      <trkpt lat="49.04388" lon="10.72075">
        <ele>615.8861717470542</ele>
      </trkpt>
      <trkpt lat="49.04388" lon="10.72075">
        <ele>615.8861717470542</ele>
      </trkpt>
      <trkpt lat="49.04388" lon="10.72075">
        <ele>615.8861717470542</ele>
      </trkpt>
      <trkpt lat="49.0441" lon="10.72103">
        <ele>617.9825361015946</ele>
      </trkpt>
      <trkpt lat="49.04446" lon="10.72211">
        <ele>621.9720886623493</ele>
      </trkpt>
      <trkpt lat="49.04453" lon="10.72242">
        <ele>624.3733074640396</ele>
      </trkpt>
      <trkpt lat="49.04461" lon="10.72266">
        <ele>624.3335773225526</ele>
      </trkpt>
      <trkpt lat="49.04461" lon="10.72266">
        <ele>624.3335773225526</ele>
      </trkpt>
      <trkpt lat="49.04471" lon="10.72296">
        <ele>624.3570922941032</ele>
      </trkpt>
      <trkpt lat="49.04481" lon="10.72317">
        <ele>623.3549047987485</ele>
      </trkpt>
      <trkpt lat="49.04487289703723" lon="10.723398001759964">
        <ele>625.4615489804557</ele>
      </trkpt>
      <trkpt lat="49.04487289703723" lon="10.723398001759964">
        <ele>625.4615489804557</ele>
      </trkpt>
      <trkpt lat="49.04489" lon="10.72346">
        <ele>625.987283639302</ele>
      </trkpt>
      <trkpt lat="49.04501" lon="10.72461">
        <ele>633.4587491006052</ele>
      </trkpt>
      <trkpt lat="49.04502" lon="10.72494">
        <ele>633.1268894223042</ele>
      </trkpt>
      <trkpt lat="49.04495" lon="10.72547">
        <ele>632.8928854095899</ele>
      </trkpt>
      <trkpt lat="49.04495" lon="10.72547">
        <ele>632.8928854095899</ele>
      </trkpt>
      <trkpt lat="49.04477" lon="10.72613">
        <ele>632.8011162420635</ele>
      </trkpt>
      <trkpt lat="49.04466" lon="10.72642">
        <ele>631.9012140387679</ele>
      </trkpt>
      <trkpt lat="49.04426" lon="10.72723">
        <ele>629.2537291327701</ele>
      </trkpt>
      <trkpt lat="49.04366" lon="10.72834">
        <ele>627.7232801429006</ele>
      </trkpt>
      <trkpt lat="49.04359" lon="10.72855">
        <ele>627.362744047028</ele>
      </trkpt>
      <trkpt lat="49.04327" lon="10.72901">
        <ele>629.8679088656805</ele>
      </trkpt>
      <trkpt lat="49.04318244078279" lon="10.729488208032434">
        <ele>628.780711391349</ele>
      </trkpt>
      <trkpt lat="49.04318244082016" lon="10.729488208032432">
        <ele>628.7807104883916</ele>
      </trkpt>
      <trkpt lat="49.04314" lon="10.72972">
        <ele>628.4980088351767</ele>
      </trkpt>
      <trkpt lat="49.04296" lon="10.73048">
        <ele>629.3271085575618</ele>
      </trkpt>
      <trkpt lat="49.04267" lon="10.73123">
        <ele>634.6438009557335</ele>
      </trkpt>
      <trkpt lat="49.04253" lon="10.7317">
        <ele>637.0250663647081</ele>
      </trkpt>
      <trkpt lat="49.0424" lon="10.73249">
        <ele>639.2740872207379</ele>
      </trkpt>
      <trkpt lat="49.04239" lon="10.73271">
        <ele>638.7931523774504</ele>
      </trkpt>
      <trkpt lat="49.04242" lon="10.73293">
        <ele>636.5342109996834</ele>
      </trkpt>
      <trkpt lat="49.04252" lon="10.7334">
        <ele>630.8248042461323</ele>
      </trkpt>
      <trkpt lat="49.04248" lon="10.73365">
        <ele>630.2979093386994</ele>
      </trkpt>
      <trkpt lat="49.04248" lon="10.73415">
        <ele>628.1641789223537</ele>
      </trkpt>
      <trkpt lat="49.04249" lon="10.73431">
        <ele>627.9952650670439</ele>
      </trkpt>
      <trkpt lat="49.04262" lon="10.73492">
        <ele>624.6221067106053</ele>
      </trkpt>
      <trkpt lat="49.04255" lon="10.73513">
        <ele>626.4666265494819</ele>
      </trkpt>
      <trkpt lat="49.04241" lon="10.73538">
        <ele>629.4883775970345</ele>
      </trkpt>
      <trkpt lat="49.0422" lon="10.73602">
        <ele>630.4488320613797</ele>
      </trkpt>
      <trkpt lat="49.04216" lon="10.73629">
        <ele>628.6716133387305</ele>
      </trkpt>
      <trkpt lat="49.04205" lon="10.73658">
        <ele>628.6244254469922</ele>
      </trkpt>
      <trkpt lat="49.04196" lon="10.73673">
        <ele>629.2638795563058</ele>
      </trkpt>
      <trkpt lat="49.04168" lon="10.73742">
        <ele>623.6319252065337</ele>
      </trkpt>
      <trkpt lat="49.04168" lon="10.73742">
        <ele>623.6319252065337</ele>
      </trkpt>
      <trkpt lat="49.04158" lon="10.73767">
        <ele>620.433189447528</ele>
      </trkpt>
      <trkpt lat="49.04116" lon="10.73825">
        <ele>620.9120522676039</ele>
      </trkpt>
      <trkpt lat="49.04116" lon="10.73825">
        <ele>620.9120522676039</ele>
      </trkpt>
      <trkpt lat="49.04091" lon="10.73845">
        <ele>623.0352999627531</ele>
      </trkpt>
      <trkpt lat="49.04063" lon="10.73875">
        <ele>625.4204501945125</ele>
      </trkpt>
      <trkpt lat="49.04027" lon="10.73934">
        <ele>626.0669819064581</ele>
      </trkpt>
      <trkpt lat="49.04005" lon="10.73974">
        <ele>625.3098564609897</ele>
      </trkpt>
      <trkpt lat="49.0399" lon="10.74013">
        <ele>624.7267499130174</ele>
      </trkpt>
      <trkpt lat="49.03979" lon="10.74059">
        <ele>622.9433520754811</ele>
      </trkpt>
      <trkpt lat="49.03958" lon="10.74111">
        <ele>621.7276202428628</ele>
      </trkpt>
      <trkpt lat="49.03943" lon="10.74161">
        <ele>621.0607101059524</ele>
      </trkpt>
      <trkpt lat="49.03906" lon="10.7426">
        <ele>621.0972401331683</ele>
      </trkpt>
      <trkpt lat="49.03859" lon="10.74341">
        <ele>620.6941923326235</ele>
      </trkpt>
      <trkpt lat="49.03831" lon="10.74402">
        <ele>622.4621156662708</ele>
      </trkpt>
      <trkpt lat="49.03815" lon="10.74463">
        <ele>620.7642109937995</ele>
      </trkpt>
      <trkpt lat="49.03815" lon="10.74463">
        <ele>620.7642109937995</ele>
      </trkpt>
      <trkpt lat="49.03807342441092" lon="10.74491715845905">
        <ele>621.2732296060115</ele>
      </trkpt>
      <trkpt lat="49.03807342441356" lon="10.74491715845905">
        <ele>621.273229499524</ele>
      </trkpt>
      <trkpt lat="49.03807" lon="10.74493">
        <ele>621.315138476529</ele>
      </trkpt>
      <trkpt lat="49.03794" lon="10.74563">
        <ele>622.3509259582972</ele>
      </trkpt>
      <trkpt lat="49.03787" lon="10.74589">
        <ele>621.1150350223306</ele>
      </trkpt>
      <trkpt lat="49.03787" lon="10.74589">
        <ele>621.1150350223306</ele>
      </trkpt>
      <trkpt lat="49.03753" lon="10.74695">
        <ele>623.9712426552284</ele>
      </trkpt>
      <trkpt lat="49.0374" lon="10.74729">
        <ele>623.4709581527002</ele>
      </trkpt>
      <trkpt lat="49.0373" lon="10.74741">
        <ele>624.6692515574871</ele>
      </trkpt>
      <trkpt lat="49.0373" lon="10.74741">
        <ele>624.6692515574871</ele>
      </trkpt>
      <trkpt lat="49.0373" lon="10.74741">
        <ele>624.6692515574871</ele>
      </trkpt>
      <trkpt lat="49.03727" lon="10.74769">
        <ele>622.8125342090157</ele>
      </trkpt>
      <trkpt lat="49.03714" lon="10.74805">
        <ele>622.8377420635903</ele>
      </trkpt>
      <trkpt lat="49.03693" lon="10.74843">
        <ele>623.3980539314389</ele>
      </trkpt>
      <trkpt lat="49.03654" lon="10.74897">
        <ele>625.2294729833035</ele>
      </trkpt>
      <trkpt lat="49.03626" lon="10.74925">
        <ele>628.899035149115</ele>
      </trkpt>
      <trkpt lat="49.03598" lon="10.74942">
        <ele>631.8678718721035</ele>
      </trkpt>
      <trkpt lat="49.03562" lon="10.74969">
        <ele>633.410734607467</ele>
      </trkpt>
      <trkpt lat="49.03562" lon="10.74969">
        <ele>633.410734607467</ele>
      </trkpt>
      <trkpt lat="49.03554" lon="10.74995">
        <ele>631.0286199304576</ele>
      </trkpt>
      <trkpt lat="49.03552" lon="10.75022">
        <ele>628.0516328134771</ele>
      </trkpt>
      <trkpt lat="49.03552" lon="10.75055">
        <ele>624.230979353835</ele>
      </trkpt>
      <trkpt lat="49.03534" lon="10.75121">
        <ele>623.7485027246655</ele>
      </trkpt>
      <trkpt lat="49.03512" lon="10.75238">
        <ele>613.2276761594466</ele>
      </trkpt>
      <trkpt lat="49.03509" lon="10.75292">
        <ele>611.0569074028385</ele>
      </trkpt>
      <trkpt lat="49.03511" lon="10.75326">
        <ele>610.0061349027883</ele>
      </trkpt>
      <trkpt lat="49.03524" lon="10.75398">
        <ele>611.2228766202247</ele>
      </trkpt>
      <trkpt lat="49.0352" lon="10.75447">
        <ele>612.6758365785242</ele>
      </trkpt>
      <trkpt lat="49.03514" lon="10.75483">
        <ele>612.3623359707661</ele>
      </trkpt>
      <trkpt lat="49.03509" lon="10.75562">
        <ele>608.6178853116342</ele>
      </trkpt>
      <trkpt lat="49.03516" lon="10.75642">
        <ele>606.9375283592858</ele>
      </trkpt>
      <trkpt lat="49.03525" lon="10.75686">
        <ele>606.1035326374875</ele>
      </trkpt>
      <trkpt lat="49.0353" lon="10.75765">
        <ele>607.9892354556634</ele>
      </trkpt>
      <trkpt lat="49.03536" lon="10.75798">
        <ele>606.9729077681909</ele>
      </trkpt>
      <trkpt lat="49.03569" lon="10.75873">
        <ele>605.7359210077286</ele>
      </trkpt>
      <trkpt lat="49.03578" lon="10.75885">
        <ele>606.618975999999</ele>
      </trkpt>
      <trkpt lat="49.03589" lon="10.75909">
        <ele>610.5499204477298</ele>
      </trkpt>
      <trkpt lat="49.036" lon="10.75983">
        <ele>612.9916424889124</ele>
      </trkpt>
      <trkpt lat="49.03628" lon="10.76098">
        <ele>604.3888111715223</ele>
      </trkpt>
      <trkpt lat="49.03636" lon="10.76148">
        <ele>605.716503495682</ele>
      </trkpt>
      <trkpt lat="49.03669" lon="10.76264">
        <ele>605.7542276332631</ele>
      </trkpt>
      <trkpt lat="49.03702393056698" lon="10.763318538665771">
        <ele>604.4250000000002</ele>
      </trkpt>
      <trkpt lat="49.03701824195817" lon="10.763327362850193">
        <ele>604.4558427600191</ele>
      </trkpt>
      <trkpt lat="49.03706" lon="10.76339">
        <ele>604.6747754666029</ele>
      </trkpt>
      <trkpt lat="49.03706" lon="10.76339">
        <ele>604.6747754666029</ele>
      </trkpt>
      <trkpt lat="49.03698" lon="10.76364">
        <ele>604.8228672099776</ele>
      </trkpt>
      <trkpt lat="49.03698" lon="10.76364">
        <ele>604.8228672099776</ele>
      </trkpt>
      <trkpt lat="49.03711" lon="10.76381">
        <ele>604.9889088368249</ele>
      </trkpt>
      <trkpt lat="49.03727" lon="10.76391">
        <ele>605.9253466226517</ele>
      </trkpt>
      <trkpt lat="49.03727" lon="10.76391">
        <ele>605.9253466226517</ele>
      </trkpt>
      <trkpt lat="49.03764061626005" lon="10.7635215810206">
        <ele>607.1648652566136</ele>
      </trkpt>
      <trkpt lat="49.03801123252009" lon="10.7631331620412">
        <ele>604.8541720099291</ele>
      </trkpt>
      <trkpt lat="49.03814171570477" lon="10.762996411037847">
        <ele>604.0435108797612</ele>
      </trkpt>
      <trkpt lat="49.03814171570477" lon="10.762996411037847">
        <ele>604.0435108797612</ele>
      </trkpt>
      <trkpt lat="49.03857074460577" lon="10.76279102287531">
        <ele>604.0907413175339</ele>
      </trkpt>
      <trkpt lat="49.03899977350678" lon="10.762585634712774">
        <ele>603.5568456330356</ele>
      </trkpt>
      <trkpt lat="49.03924341340979" lon="10.762468997460871">
        <ele>602.8474408266004</ele>
      </trkpt>
      <trkpt lat="49.03924341340979" lon="10.762468997460871">
        <ele>602.8474408266004</ele>
      </trkpt>
      <trkpt lat="49.03959246706046" lon="10.762419972241702">
        <ele>603.4021276970323</ele>
      </trkpt>
      <trkpt lat="49.03959246706046" lon="10.762419972241702">
        <ele>603.4021276970323</ele>
      </trkpt>
      <trkpt lat="49.039935242862356" lon="10.762594270462358">
        <ele>603.3085814793924</ele>
      </trkpt>
      <trkpt lat="49.039935242862356" lon="10.762594270462358">
        <ele>603.3085814793924</ele>
      </trkpt>
      <trkpt lat="49.04034141078911" lon="10.762888581572312">
        <ele>601.2666887370344</ele>
      </trkpt>
      <trkpt lat="49.04036370929268" lon="10.762904739168476">
        <ele>601.0740761276575</ele>
      </trkpt>
      <trkpt lat="49.04036370929268" lon="10.762904739168476">
        <ele>601.0740761276575</ele>
      </trkpt>
      <trkpt lat="49.04062445036229" lon="10.762965112787526">
        <ele>598.9045325630359</ele>
      </trkpt>
      <trkpt lat="49.04062445036229" lon="10.762965112787526">
        <ele>598.9045325630359</ele>
      </trkpt>
      <trkpt lat="49.04091759974895" lon="10.763049116849146">
        <ele>595.6957419754033</ele>
      </trkpt>
      <trkpt lat="49.041181669807685" lon="10.76314718195934">
        <ele>591.1242798937487</ele>
      </trkpt>
      <trkpt lat="49.041181669807685" lon="10.76314718195934">
        <ele>591.1242798937487</ele>
      </trkpt>
      <trkpt lat="49.041181669807685" lon="10.76314718195934">
        <ele>591.1242798937487</ele>
      </trkpt>
      <trkpt lat="49.041424477861085" lon="10.763375125460868">
        <ele>585.6671969650789</ele>
      </trkpt>
      <trkpt lat="49.041424477861085" lon="10.763375125460868">
        <ele>585.6671969650789</ele>
      </trkpt>
      <trkpt lat="49.0418387814162" lon="10.763641752724743">
        <ele>574.1467886055588</ele>
      </trkpt>
      <trkpt lat="49.04207339646749" lon="10.763792740493045">
        <ele>566.9425530114573</ele>
      </trkpt>
      <trkpt lat="49.04225995326817" lon="10.763845889882987">
        <ele>560.8129557628447</ele>
      </trkpt>
      <trkpt lat="49.04225995326817" lon="10.763845889882987">
        <ele>560.8129557628447</ele>
      </trkpt>
      <trkpt lat="49.04225995326817" lon="10.763845889882987">
        <ele>560.8129557628447</ele>
      </trkpt>
      <trkpt lat="49.042320730593815" lon="10.763909739824328">
        <ele>559.221847104902</ele>
      </trkpt>
      <trkpt lat="49.042320730593815" lon="10.763909739824328">
        <ele>559.221847104902</ele>
      </trkpt>
      <trkpt lat="49.04237099717537" lon="10.763897772968022">
        <ele>557.4924283262819</ele>
      </trkpt>
      <trkpt lat="49.04237099717537" lon="10.763897772968022">
        <ele>557.4924283262819</ele>
      </trkpt>
      <trkpt lat="49.042389668227656" lon="10.763737228737511">
        <ele>555.7814586169559</ele>
      </trkpt>
      <trkpt lat="49.042389668227656" lon="10.763737228737511">
        <ele>555.7814586169559</ele>
      </trkpt>
      <trkpt lat="49.04241188686464" lon="10.763584040250777">
        <ele>553.5509491460872</ele>
      </trkpt>
      <trkpt lat="49.04241188686464" lon="10.763584040250777">
        <ele>553.5509491460872</ele>
      </trkpt>
      <trkpt lat="49.04257084519031" lon="10.763352258404609">
        <ele>546.859006319347</ele>
      </trkpt>
      <trkpt lat="49.04257084519031" lon="10.763352258404609">
        <ele>546.859006319347</ele>
      </trkpt>
      <trkpt lat="49.04255417481974" lon="10.763101288630764">
        <ele>544.8795096810061</ele>
      </trkpt>
      <trkpt lat="49.042290617266666" lon="10.762545496990768">
        <ele>543.2534796653797</ele>
      </trkpt>
      <trkpt lat="49.04202705971359" lon="10.76198970535077">
        <ele>544.2259070266982</ele>
      </trkpt>
      <trkpt lat="49.041763502160514" lon="10.761433913710773">
        <ele>544.736600781577</ele>
      </trkpt>
      <trkpt lat="49.0417" lon="10.7613">
        <ele>544.4518694129316</ele>
      </trkpt>
      <trkpt lat="49.0417" lon="10.7613">
        <ele>544.4518694129316</ele>
      </trkpt>
      <trkpt lat="49.04159" lon="10.76114">
        <ele>545.0816466758415</ele>
      </trkpt>
      <trkpt lat="49.04128" lon="10.76079">
        <ele>547.0184652609275</ele>
      </trkpt>
      <trkpt lat="49.04092" lon="10.76045">
        <ele>543.5717264623854</ele>
      </trkpt>
      <trkpt lat="49.04059" lon="10.76018">
        <ele>543.35945399364</ele>
      </trkpt>
      <trkpt lat="49.03865" lon="10.75916">
        <ele>552.2681917488976</ele>
      </trkpt>
      <trkpt lat="49.03849" lon="10.75911">
        <ele>555.7485588159889</ele>
      </trkpt>
      <trkpt lat="49.03849" lon="10.75911">
        <ele>555.7485588159889</ele>
      </trkpt>
      <trkpt lat="49.03839" lon="10.75899">
        <ele>557.3306825338385</ele>
      </trkpt>
      <trkpt lat="49.03823290194728" lon="10.758156697285584">
        <ele>557.154282496724</ele>
      </trkpt>
      <trkpt lat="49.03823290206241" lon="10.758156697285584">
        <ele>557.1542846225996</ele>
      </trkpt>
      <trkpt lat="49.03816" lon="10.75777">
        <ele>550.7564206460858</ele>
      </trkpt>
      <trkpt lat="49.03806" lon="10.7571">
        <ele>546.4441869895409</ele>
      </trkpt>
      <trkpt lat="49.03793" lon="10.75593">
        <ele>539.489150119651</ele>
      </trkpt>
      <trkpt lat="49.03793990481187" lon="10.755405047662645">
        <ele>535.2543524019123</ele>
      </trkpt>
      <trkpt lat="49.03793990481187" lon="10.755405047662645">
        <ele>535.2543524019123</ele>
      </trkpt>
      <trkpt lat="49.03794" lon="10.7554">
        <ele>535.2192620523755</ele>
      </trkpt>
      <trkpt lat="49.03789" lon="10.75476">
        <ele>535.6642026666559</ele>
      </trkpt>
      <trkpt lat="49.03787" lon="10.75461">
        <ele>537.3694634668534</ele>
      </trkpt>
      <trkpt lat="49.03787" lon="10.75461">
        <ele>537.3694634668534</ele>
      </trkpt>
      <trkpt lat="49.03783" lon="10.75439">
        <ele>545.4256489261523</ele>
      </trkpt>
      <trkpt lat="49.0378" lon="10.754">
        <ele>549.4188685556654</ele>
      </trkpt>
      <trkpt lat="49.0378" lon="10.75367">
        <ele>548.175064433332</ele>
      </trkpt>
      <trkpt lat="49.03787" lon="10.7534">
        <ele>540.3190648888715</ele>
      </trkpt>
      <trkpt lat="49.03787" lon="10.7534">
        <ele>540.3190648888715</ele>
      </trkpt>
      <trkpt lat="49.03803" lon="10.75273">
        <ele>537.8188040191076</ele>
      </trkpt>
      <trkpt lat="49.03817" lon="10.75188">
        <ele>546.7404719435406</ele>
      </trkpt>
      <trkpt lat="49.03813" lon="10.75165">
        <ele>552.3118754040454</ele>
      </trkpt>
      <trkpt lat="49.03819" lon="10.75147">
        <ele>551.079734383326</ele>
      </trkpt>
      <trkpt lat="49.03836" lon="10.75109">
        <ele>546.3752963308727</ele>
      </trkpt>
      <trkpt lat="49.03871" lon="10.75022">
        <ele>551.1688897931028</ele>
      </trkpt>
      <trkpt lat="49.03915" lon="10.74925">
        <ele>548.4326104948534</ele>
      </trkpt>
      <trkpt lat="49.03922" lon="10.74904">
        <ele>547.8595003279968</ele>
      </trkpt>
      <trkpt lat="49.03958" lon="10.74748">
        <ele>554.4402761371649</ele>
      </trkpt>
      <trkpt lat="49.03958" lon="10.74748">
        <ele>554.4402761371649</ele>
      </trkpt>
      <trkpt lat="49.03958" lon="10.74748">
        <ele>554.4402761371649</ele>
      </trkpt>
      <trkpt lat="49.039910018113545" lon="10.746755793584162">
        <ele>555.4641002811837</ele>
      </trkpt>
      <trkpt lat="49.039910019407394" lon="10.746755793584162">
        <ele>555.4640486793942</ele>
      </trkpt>
      <trkpt lat="49.0403" lon="10.7459">
        <ele>538.3534403904353</ele>
      </trkpt>
      <trkpt lat="49.04046" lon="10.74463">
        <ele>543.1118895800096</ele>
      </trkpt>
      <trkpt lat="49.04046" lon="10.74463">
        <ele>543.1118895800096</ele>
      </trkpt>
      <trkpt lat="49.04062" lon="10.74354">
        <ele>554.0593581305495</ele>
      </trkpt>
      <trkpt lat="49.04118" lon="10.74263">
        <ele>548.8798576762691</ele>
      </trkpt>
      <trkpt lat="49.04205" lon="10.74144">
        <ele>545.8139778579965</ele>
      </trkpt>
      <trkpt lat="49.04239" lon="10.74102">
        <ele>545.4901302233365</ele>
      </trkpt>
      <trkpt lat="49.04239" lon="10.74102">
        <ele>545.4901302233365</ele>
      </trkpt>
      <trkpt lat="49.04257902346995" lon="10.741240730632656">
        <ele>531.7525188432151</ele>
      </trkpt>
      <trkpt lat="49.042579025840276" lon="10.741240730632656">
        <ele>531.7524558576051</ele>
      </trkpt>
      <trkpt lat="49.043826254790595" lon="10.742697174949019">
        <ele>507.0033928042285</ele>
      </trkpt>
      <trkpt lat="49.043826254790595" lon="10.742697174949019">
        <ele>507.0033928042285</ele>
      </trkpt>
      <trkpt lat="49.04394" lon="10.74283">
        <ele>505.418424095966</ele>
      </trkpt>
      <trkpt lat="49.04394" lon="10.74283">
        <ele>505.418424095966</ele>
      </trkpt>
      <trkpt lat="49.04393" lon="10.7427">
        <ele>506.33927954221184</ele>
      </trkpt>
      <trkpt lat="49.04405" lon="10.74067">
        <ele>533.1080917214908</ele>
      </trkpt>
      <trkpt lat="49.04407" lon="10.74044">
        <ele>538.1566391781575</ele>
      </trkpt>
      <trkpt lat="49.04416" lon="10.74021">
        <ele>538.2689752137676</ele>
      </trkpt>
      <trkpt lat="49.0447" lon="10.73923">
        <ele>521.1847799223852</ele>
      </trkpt>
      <trkpt lat="49.04479" lon="10.73898">
        <ele>521.0148159812172</ele>
      </trkpt>
      <trkpt lat="49.0449" lon="10.73833">
        <ele>536.1332261384963</ele>
      </trkpt>
      <trkpt lat="49.04489161528555" lon="10.738040128443313">
        <ele>544.4604046480619</ele>
      </trkpt>
      <trkpt lat="49.04489161529075" lon="10.738040128443314">
        <ele>544.4604044886051</ele>
      </trkpt>
      <trkpt lat="49.04483" lon="10.73591">
        <ele>547.4924187553609</ele>
      </trkpt>
      <trkpt lat="49.04483" lon="10.73591">
        <ele>547.4924187553609</ele>
      </trkpt>
      <trkpt lat="49.0449" lon="10.73523">
        <ele>551.8921963744324</ele>
      </trkpt>
      <trkpt lat="49.04499" lon="10.73501">
        <ele>549.5313505033964</ele>
      </trkpt>
      <trkpt lat="49.04505" lon="10.73478">
        <ele>545.0105216520482</ele>
      </trkpt>
      <trkpt lat="49.04507" lon="10.73453">
        <ele>540.0210420283998</ele>
      </trkpt>
      <trkpt lat="49.04507" lon="10.73427">
        <ele>537.2701300914119</ele>
      </trkpt>
      <trkpt lat="49.04499" lon="10.73341">
        <ele>535.2693036585123</ele>
      </trkpt>
      <trkpt lat="49.04499" lon="10.73303">
        <ele>535.0568029610446</ele>
      </trkpt>
      <trkpt lat="49.04499" lon="10.73303">
        <ele>535.0568029610446</ele>
      </trkpt>
      <trkpt lat="49.04499" lon="10.73303">
        <ele>535.0568029610446</ele>
      </trkpt>
      <trkpt lat="49.04513" lon="10.73252">
        <ele>534.0651239926</ele>
      </trkpt>
      <trkpt lat="49.04538" lon="10.73174">
        <ele>534.624401231005</ele>
      </trkpt>
      <trkpt lat="49.04538" lon="10.73174">
        <ele>534.624401231005</ele>
      </trkpt>
      <trkpt lat="49.04577" lon="10.73082">
        <ele>533.9319252488366</ele>
      </trkpt>
      <trkpt lat="49.04646" lon="10.72943">
        <ele>530.13437928572</ele>
      </trkpt>
      <trkpt lat="49.04668" lon="10.72893">
        <ele>529.9000374645241</ele>
      </trkpt>
      <trkpt lat="49.04668" lon="10.72893">
        <ele>529.9000374645241</ele>
      </trkpt>
      <trkpt lat="49.047123177301074" lon="10.729046075384893">
        <ele>523.442185239613</ele>
      </trkpt>
      <trkpt lat="49.047566354602154" lon="10.729162150769787">
        <ele>518.6016204243808</ele>
      </trkpt>
      <trkpt lat="49.047929419206156" lon="10.729257243328789">
        <ele>514.503039378797</ele>
      </trkpt>
      <trkpt lat="49.047929419206156" lon="10.729257243328789">
        <ele>514.503039378797</ele>
      </trkpt>
      <trkpt lat="49.04823990757407" lon="10.729374749234296">
        <ele>511.34817020092214</ele>
      </trkpt>
      <trkpt lat="49.04868493057726" lon="10.729473023940441">
        <ele>507.5832691526341</ele>
      </trkpt>
      <trkpt lat="49.04872663070714" lon="10.729482232606017">
        <ele>507.28672464279947</ele>
      </trkpt>
      <trkpt lat="49.04872663070714" lon="10.729482232606017">
        <ele>507.28672464279947</ele>
      </trkpt>
      <trkpt lat="49.04917434507257" lon="10.72954598939356">
        <ele>504.2319802342944</ele>
      </trkpt>
      <trkpt lat="49.04962205943801" lon="10.729609746181104">
        <ele>501.41747724153237</ele>
      </trkpt>
      <trkpt lat="49.05006977380344" lon="10.72967350296865">
        <ele>498.3112584908813</ele>
      </trkpt>
      <trkpt lat="49.05016755941858" lon="10.72968742813427">
        <ele>497.6382206153129</ele>
      </trkpt>
      <trkpt lat="49.05016755941858" lon="10.72968742813427">
        <ele>497.6382206153129</ele>
      </trkpt>
      <trkpt lat="49.05016755941858" lon="10.72968742813427">
        <ele>497.6382206153129</ele>
      </trkpt>
      <trkpt lat="49.05021517148801" lon="10.729005195648638">
        <ele>499.317915839756</ele>
      </trkpt>
      <trkpt lat="49.05026278355744" lon="10.728322963163004">
        <ele>500.17264901953865</ele>
      </trkpt>
      <trkpt lat="49.05031039562687" lon="10.727640730677372">
        <ele>500.99826696821185</ele>
      </trkpt>
      <trkpt lat="49.0503580076963" lon="10.726958498191738">
        <ele>501.2841218882716</ele>
      </trkpt>
      <trkpt lat="49.05040561976573" lon="10.726276265706106">
        <ele>500.4915985600802</ele>
      </trkpt>
      <trkpt lat="49.050453231835164" lon="10.725594033220473">
        <ele>500.75077846217937</ele>
      </trkpt>
      <trkpt lat="49.05047787640265" lon="10.725240901656662">
        <ele>501.03404417303426</ele>
      </trkpt>
      <trkpt lat="49.050407653609" lon="10.724563229926334">
        <ele>502.0141817914678</ele>
      </trkpt>
      <trkpt lat="49.05033743081535" lon="10.723885558196006">
        <ele>502.71231381068947</ele>
      </trkpt>
      <trkpt lat="49.0502672080217" lon="10.723207886465678">
        <ele>502.94693716610834</ele>
      </trkpt>
      <trkpt lat="49.050222798236675" lon="10.722779318271577">
        <ele>503.83472452919943</ele>
      </trkpt>
      <trkpt lat="49.050222798236675" lon="10.722779318271577">
        <ele>503.83472452919943</ele>
      </trkpt>
      <trkpt lat="49.05021" lon="10.72267">
        <ele>504.2746809173469</ele>
      </trkpt>
      <trkpt lat="49.05021" lon="10.72266">
        <ele>504.3023465204734</ele>
      </trkpt>
      <trkpt lat="49.05012" lon="10.72201">
        <ele>504.396868318625</ele>
      </trkpt>
      <trkpt lat="49.05011395759935" lon="10.721988247357679">
        <ele>504.33894205591804</ele>
      </trkpt>
      <trkpt lat="49.05011395760203" lon="10.721988247357679">
        <ele>504.3389420453352</ele>
      </trkpt>
      <trkpt lat="49.05007" lon="10.72183">
        <ele>504.32999096201803</ele>
      </trkpt>
      <trkpt lat="49.04942" lon="10.71991">
        <ele>512.2016429596354</ele>
      </trkpt>
      <trkpt lat="49.04942" lon="10.71991">
        <ele>512.2016429596354</ele>
      </trkpt>
      <trkpt lat="49.04912" lon="10.71862">
        <ele>512.5941854924432</ele>
      </trkpt>
      <trkpt lat="49.04912" lon="10.718619">
        <ele>524.66</ele>
      </trkpt>
      <trkpt lat="49.049125" lon="10.718617">
        <ele>524.6</ele>
      </trkpt>
      <trkpt lat="49.04918" lon="10.718455">
        <ele>523.71</ele>
      </trkpt>
      <trkpt lat="49.04923" lon="10.718019">
        <ele>522.5</ele>
      </trkpt>
      <trkpt lat="49.049312" lon="10.716832">
        <ele>521.67</ele>
      </trkpt>
      <trkpt lat="49.049317" lon="10.715854">
        <ele>521.09</ele>
      </trkpt>
      <trkpt lat="49.049246" lon="10.715231">
        <ele>518.43</ele>
      </trkpt>
      <trkpt lat="49.049246" lon="10.715231">
        <ele>503.22476711791194</ele>
      </trkpt>
      <trkpt lat="49.04910287288416" lon="10.714580611453405">
        <ele>505.61258059943367</ele>
      </trkpt>
      <trkpt lat="49.04895974576832" lon="10.713930222906813">
        <ele>504.5694661590274</ele>
      </trkpt>
      <trkpt lat="49.04881661865249" lon="10.713279834360218">
        <ele>504.7796308477733</ele>
      </trkpt>
      <trkpt lat="49.04876791471523" lon="10.713058517226955">
        <ele>503.82512214260674</ele>
      </trkpt>
      <trkpt lat="49.04844567047145" lon="10.712580032319236">
        <ele>503.85285844760443</ele>
      </trkpt>
      <trkpt lat="49.04812342622768" lon="10.712101547411516">
        <ele>507.03159281769865</ele>
      </trkpt>
      <trkpt lat="49.04780118198391" lon="10.711623062503797">
        <ele>508.2052926122211</ele>
      </trkpt>
      <trkpt lat="49.04747893774014" lon="10.711144577596077">
        <ele>507.12961603323924</ele>
      </trkpt>
      <trkpt lat="49.04715669349636" lon="10.710666092688358">
        <ele>506.45718325977515</ele>
      </trkpt>
      <trkpt lat="49.04691610072791" lon="10.710308848111197">
        <ele>505.36738408238216</ele>
      </trkpt>
      <trkpt lat="49.04691610072791" lon="10.710308848111197">
        <ele>505.36738408238216</ele>
      </trkpt>
      <trkpt lat="49.04691610072791" lon="10.710308848111197">
        <ele>505.36738408238216</ele>
      </trkpt>
      <trkpt lat="49.04646743647237" lon="10.71035448228865">
        <ele>507.6373370111929</ele>
      </trkpt>
      <trkpt lat="49.04601877221683" lon="10.710400116466106">
        <ele>509.6287992541827</ele>
      </trkpt>
      <trkpt lat="49.04557010796129" lon="10.71044575064356">
        <ele>511.36363426838113</ele>
      </trkpt>
      <trkpt lat="49.04542798594008" lon="10.710460206044132">
        <ele>511.45220151692644</ele>
      </trkpt>
      <trkpt lat="49.04542798594008" lon="10.710460206044132">
        <ele>511.45220151692644</ele>
      </trkpt>
      <trkpt lat="49.04499137536699" lon="10.710624276775865">
        <ele>511.32949434279885</ele>
      </trkpt>
      <trkpt lat="49.0445547647939" lon="10.710788347507599">
        <ele>510.32219825154226</ele>
      </trkpt>
      <trkpt lat="49.044430335920424" lon="10.710835105734674">
        <ele>510.6532824664409</ele>
      </trkpt>
      <trkpt lat="49.044430335920424" lon="10.710835105734674">
        <ele>510.6532824664409</ele>
      </trkpt>
      <trkpt lat="49.04401194591508" lon="10.710583755386658">
        <ele>522.3466702476976</ele>
      </trkpt>
      <trkpt lat="49.043767023817" lon="10.710436616942133">
        <ele>530.7625143333347</ele>
      </trkpt>
      <trkpt lat="49.043767023817" lon="10.710436616942133">
        <ele>530.7625143333347</ele>
      </trkpt>
      <trkpt lat="49.04354362655715" lon="10.710279318733853">
        <ele>533.9511263091828</ele>
      </trkpt>
      <trkpt lat="49.04354362655715" lon="10.710279318733853">
        <ele>533.9511263091828</ele>
      </trkpt>
      <trkpt lat="49.04342677220663" lon="10.710032884875517">
        <ele>534.9258746897754</ele>
      </trkpt>
      <trkpt lat="49.04342677220663" lon="10.710032884875517">
        <ele>534.9258746897754</ele>
      </trkpt>
      <trkpt lat="49.04304097811447" lon="10.70968048899516">
        <ele>537.9504551031467</ele>
      </trkpt>
      <trkpt lat="49.04303235030446" lon="10.709672608095048">
        <ele>538.007210753148</ele>
      </trkpt>
      <trkpt lat="49.042623039978515" lon="10.70938859338806">
        <ele>540.4162028132271</ele>
      </trkpt>
      <trkpt lat="49.04260048900338" lon="10.709372945582004">
        <ele>540.5079049625655</ele>
      </trkpt>
      <trkpt lat="49.04260048900338" lon="10.709372945582004">
        <ele>540.5079049625655</ele>
      </trkpt>
      <trkpt lat="49.04260048900338" lon="10.709372945582004">
        <ele>540.5079049625655</ele>
      </trkpt>
      <trkpt lat="49.042433390880035" lon="10.709243662251424">
        <ele>541.8148468034967</ele>
      </trkpt>
      <trkpt lat="49.04236785674695" lon="10.70911731344205">
        <ele>541.8021051577763</ele>
      </trkpt>
      <trkpt lat="49.04236785674695" lon="10.70911731344205">
        <ele>541.8021051577763</ele>
      </trkpt>
      <trkpt lat="49.04236785674695" lon="10.70911731344205">
        <ele>541.8021051577763</ele>
      </trkpt>
      <trkpt lat="49.04243364103618" lon="10.708968066054496">
        <ele>539.7543025761524</ele>
      </trkpt>
      <trkpt lat="49.04256614083411" lon="10.708795975413182">
        <ele>536.958308974468</ele>
      </trkpt>
      <trkpt lat="49.04256614083411" lon="10.708795975413182">
        <ele>536.958308974468</ele>
      </trkpt>
      <trkpt lat="49.04263272572419" lon="10.708636574310844">
        <ele>535.1607409967874</ele>
      </trkpt>
      <trkpt lat="49.04263272572419" lon="10.708636574310844">
        <ele>535.1607409967874</ele>
      </trkpt>
      <trkpt lat="49.042757700200895" lon="10.707989593365454">
        <ele>528.9220591402621</ele>
      </trkpt>
      <trkpt lat="49.042757700200895" lon="10.707989593365454">
        <ele>528.9220591402621</ele>
      </trkpt>
      <trkpt lat="49.042757700200895" lon="10.707989593365454">
        <ele>528.9220591402621</ele>
      </trkpt>
      <trkpt lat="49.042848753782806" lon="10.707818101250751">
        <ele>526.974642553686</ele>
      </trkpt>
      <trkpt lat="49.04292565057224" lon="10.707603812763068">
        <ele>525.2974596343474</ele>
      </trkpt>
      <trkpt lat="49.04292565057224" lon="10.707603812763068">
        <ele>525.2974596343474</ele>
      </trkpt>
      <trkpt lat="49.04292565057224" lon="10.707603812763068">
        <ele>525.2974596343474</ele>
      </trkpt>
      <trkpt lat="49.04297691503294" lon="10.707267520610031">
        <ele>522.835201233067</ele>
      </trkpt>
      <trkpt lat="49.04297983948513" lon="10.70710317624875">
        <ele>521.5844798742335</ele>
      </trkpt>
      <trkpt lat="49.04297983948513" lon="10.70710317624875">
        <ele>521.5844798742335</ele>
      </trkpt>
      <trkpt lat="49.04297983948513" lon="10.70710317624875">
        <ele>521.5844798742335</ele>
      </trkpt>
      <trkpt lat="49.04297124124554" lon="10.706892272641994">
        <ele>519.9247792388785</ele>
      </trkpt>
      <trkpt lat="49.04293926566311" lon="10.706671649642004">
        <ele>518.3327677569357</ele>
      </trkpt>
      <trkpt lat="49.04293926566311" lon="10.706671649642004">
        <ele>518.3327677569357</ele>
      </trkpt>
      <trkpt lat="49.04293926566311" lon="10.706671649642004">
        <ele>518.3327677569357</ele>
      </trkpt>
      <trkpt lat="49.042890575532" lon="10.706543045279432">
        <ele>517.6264162961229</ele>
      </trkpt>
      <trkpt lat="49.04282936061199" lon="10.706489965491102">
        <ele>517.5416857166279</ele>
      </trkpt>
      <trkpt lat="49.04282936061199" lon="10.706489965491102">
        <ele>517.5416857166279</ele>
      </trkpt>
      <trkpt lat="49.04282936061199" lon="10.706489965491102">
        <ele>517.5416857166279</ele>
      </trkpt>
      <trkpt lat="49.042773190673614" lon="10.706578542662896">
        <ele>518.5097797006345</ele>
      </trkpt>
      <trkpt lat="49.042773190673614" lon="10.706578542662896">
        <ele>518.5097797006345</ele>
      </trkpt>
      <trkpt lat="49.04276287734501" lon="10.70663777518098">
        <ele>519.0231714393924</ele>
      </trkpt>
      <trkpt lat="49.04271737734001" lon="10.706714592353336">
        <ele>519.9103531147362</ele>
      </trkpt>
      <trkpt lat="49.04271737734001" lon="10.706714592353336">
        <ele>519.9103531147362</ele>
      </trkpt>
      <trkpt lat="49.04271737734001" lon="10.706714592353336">
        <ele>519.9103531147362</ele>
      </trkpt>
      <trkpt lat="49.04256290700661" lon="10.70701608510737">
        <ele>523.3239410040998</ele>
      </trkpt>
      <trkpt lat="49.04256290700661" lon="10.70701608510737">
        <ele>523.3239410040998</ele>
      </trkpt>
      <trkpt lat="49.04236845213967" lon="10.707180256117624">
        <ele>525.7508811979544</ele>
      </trkpt>
      <trkpt lat="49.04236845213967" lon="10.707180256117624">
        <ele>525.7508811979544</ele>
      </trkpt>
      <trkpt lat="49.04215626946248" lon="10.707226498239407">
        <ele>527.7514610607186</ele>
      </trkpt>
      <trkpt lat="49.04215626946248" lon="10.707226498239407">
        <ele>527.7514610607186</ele>
      </trkpt>
      <trkpt lat="49.04189299310315" lon="10.707224836904487">
        <ele>530.0349885275136</ele>
      </trkpt>
      <trkpt lat="49.04155937714188" lon="10.707151830618756">
        <ele>533.362835535105</ele>
      </trkpt>
      <trkpt lat="49.04155937714188" lon="10.707151830618756">
        <ele>533.362835535105</ele>
      </trkpt>
      <trkpt lat="49.04155937714188" lon="10.707151830618756">
        <ele>533.362835535105</ele>
      </trkpt>
      <trkpt lat="49.04138779390317" lon="10.707171488033055">
        <ele>535.2301391142041</ele>
      </trkpt>
      <trkpt lat="49.04138779390317" lon="10.707171488033055">
        <ele>535.2301391142041</ele>
      </trkpt>
      <trkpt lat="49.04114922892592" lon="10.707251169616939">
        <ele>536.9377802578741</ele>
      </trkpt>
      <trkpt lat="49.04114922892592" lon="10.707251169616939">
        <ele>536.9377802578741</ele>
      </trkpt>
      <trkpt lat="49.04072552887323" lon="10.707480870854887">
        <ele>541.735809267638</ele>
      </trkpt>
      <trkpt lat="49.040474522143484" lon="10.707616949564795">
        <ele>544.7250651294837</ele>
      </trkpt>
      <trkpt lat="49.040474522143484" lon="10.707616949564795">
        <ele>544.7250651294837</ele>
      </trkpt>
      <trkpt lat="49.040081350249814" lon="10.707949806886605">
        <ele>550.8520303279175</ele>
      </trkpt>
      <trkpt lat="49.04004425213685" lon="10.70798121396001">
        <ele>551.4367481054622</ele>
      </trkpt>
      <trkpt lat="49.03966845367536" lon="10.708357884316307">
        <ele>556.9179421132242</ele>
      </trkpt>
      <trkpt lat="49.039488236126545" lon="10.708538519990157">
        <ele>560.2049228525075</ele>
      </trkpt>
      <trkpt lat="49.039488236126545" lon="10.708538519990157">
        <ele>560.2049228525075</ele>
      </trkpt>
      <trkpt lat="49.039488236126545" lon="10.708538519990157">
        <ele>560.2049228525075</ele>
      </trkpt>
      <trkpt lat="49.039191765564084" lon="10.708595458068174">
        <ele>562.928491987382</ele>
      </trkpt>
      <trkpt lat="49.039191765564084" lon="10.708595458068174">
        <ele>562.928491987382</ele>
      </trkpt>
      <trkpt lat="49.03906859763572" lon="10.708576669392556">
        <ele>564.6884563936388</ele>
      </trkpt>
      <trkpt lat="49.039005893845655" lon="10.708516887244173">
        <ele>565.2383231722874</ele>
      </trkpt>
      <trkpt lat="49.039005893845655" lon="10.708516887244173">
        <ele>565.2383231722874</ele>
      </trkpt>
      <trkpt lat="49.039005893845655" lon="10.708516887244173">
        <ele>565.2383231722874</ele>
      </trkpt>
      <trkpt lat="49.03893635444143" lon="10.707839206647716">
        <ele>562.554373322474</ele>
      </trkpt>
      <trkpt lat="49.038924154864674" lon="10.707720318420996">
        <ele>562.4594413591517</ele>
      </trkpt>
      <trkpt lat="49.038924154864674" lon="10.707720318420996">
        <ele>562.4594413591517</ele>
      </trkpt>
      <trkpt lat="49.03896972332515" lon="10.70721488546161">
        <ele>559.372487141053</ele>
      </trkpt>
      <trkpt lat="49.03899547669562" lon="10.70654703346267">
        <ele>558.1727353986361</ele>
      </trkpt>
      <trkpt lat="49.03899547669562" lon="10.70654703346267">
        <ele>558.1727353986361</ele>
      </trkpt>
      <trkpt lat="49.03899547669562" lon="10.70654703346267">
        <ele>558.1727353986361</ele>
      </trkpt>
      <trkpt lat="49.039019409659886" lon="10.706161705480412">
        <ele>556.3664235888265</ele>
      </trkpt>
      <trkpt lat="49.039019409659886" lon="10.706161705480412">
        <ele>556.3664235888265</ele>
      </trkpt>
      <trkpt lat="49.039167059941725" lon="10.705513803230296">
        <ele>551.7005984177114</ele>
      </trkpt>
      <trkpt lat="49.03931362586843" lon="10.70487065922461">
        <ele>546.5761924808393</ele>
      </trkpt>
      <trkpt lat="49.03931362586843" lon="10.70487065922461">
        <ele>546.5761924808393</ele>
      </trkpt>
      <trkpt lat="49.03952760840192" lon="10.704267366573927">
        <ele>539.7178248759723</ele>
      </trkpt>
      <trkpt lat="49.0396685118084" lon="10.703870109899754">
        <ele>534.4620097681196</ele>
      </trkpt>
      <trkpt lat="49.039653208585406" lon="10.703782977889091">
        <ele>534.3182749498293</ele>
      </trkpt>
      <trkpt lat="49.039653208585406" lon="10.703782977889091">
        <ele>534.3182749498293</ele>
      </trkpt>
      <trkpt lat="49.039653208585406" lon="10.703782977889091">
        <ele>534.3182749498293</ele>
      </trkpt>
      <trkpt lat="49.039474410591424" lon="10.703740667392537">
        <ele>537.1404478901868</ele>
      </trkpt>
      <trkpt lat="49.039474410591424" lon="10.703740667392537">
        <ele>537.1404478901868</ele>
      </trkpt>
      <trkpt lat="49.03920410224268" lon="10.703540665918041">
        <ele>539.6035365470693</ele>
      </trkpt>
      <trkpt lat="49.03876984325366" lon="10.703362682064187">
        <ele>543.0535173960974</ele>
      </trkpt>
      <trkpt lat="49.03874257792509" lon="10.70335150719302">
        <ele>543.2401066469968</ele>
      </trkpt>
      <trkpt lat="49.03874257792509" lon="10.70335150719302">
        <ele>543.2401066469968</ele>
      </trkpt>
      <trkpt lat="49.03874257792509" lon="10.70335150719302">
        <ele>543.2401066469968</ele>
      </trkpt>
      <trkpt lat="49.03831411694032" lon="10.703143379871475">
        <ele>545.7054922273927</ele>
      </trkpt>
      <trkpt lat="49.038062434768875" lon="10.703021123847975">
        <ele>546.4400409150254</ele>
      </trkpt>
      <trkpt lat="49.03776104790168" lon="10.702929449270584">
        <ele>546.8661133151509</ele>
      </trkpt>
      <trkpt lat="49.03776104790168" lon="10.702929449270584">
        <ele>546.8661133151509</ele>
      </trkpt>
      <trkpt lat="49.03776104790168" lon="10.702929449270584">
        <ele>546.8661133151509</ele>
      </trkpt>
      <trkpt lat="49.037615024727074" lon="10.70274784699555">
        <ele>545.2327159824898</ele>
      </trkpt>
      <trkpt lat="49.037615024727074" lon="10.70274784699555">
        <ele>545.2327159824898</ele>
      </trkpt>
      <trkpt lat="49.037364769021565" lon="10.702551935117214">
        <ele>543.5637011811913</ele>
      </trkpt>
      <trkpt lat="49.03693482107248" lon="10.702351075370677">
        <ele>538.44769801355</ele>
      </trkpt>
      <trkpt lat="49.03674124136273" lon="10.702260640304019">
        <ele>531.96982723762</ele>
      </trkpt>
      <trkpt lat="49.03674124136273" lon="10.702260640304019">
        <ele>531.96982723762</ele>
      </trkpt>
      <trkpt lat="49.03669398675635" lon="10.702050864021231">
        <ele>527.0695793639122</ele>
      </trkpt>
      <trkpt lat="49.03669398675635" lon="10.702050864021231">
        <ele>527.0695793639122</ele>
      </trkpt>
      <trkpt lat="49.03669398675635" lon="10.702050864021231">
        <ele>527.0695793639122</ele>
      </trkpt>
      <trkpt lat="49.0366676602557" lon="10.701366141815754">
        <ele>518.403320519906</ele>
      </trkpt>
      <trkpt lat="49.03664133375506" lon="10.700681419610278">
        <ele>513.7959266328268</ele>
      </trkpt>
      <trkpt lat="49.03661500725441" lon="10.699996697404801">
        <ele>512.6193080579867</ele>
      </trkpt>
      <trkpt lat="49.036588680753766" lon="10.699311975199324">
        <ele>513.0324251349407</ele>
      </trkpt>
      <trkpt lat="49.03656235425312" lon="10.698627252993846">
        <ele>510.84120413479474</ele>
      </trkpt>
      <trkpt lat="49.036536027752476" lon="10.69794253078837">
        <ele>507.3401617234197</ele>
      </trkpt>
      <trkpt lat="49.03650970125183" lon="10.697257808582894">
        <ele>499.5039480698691</ele>
      </trkpt>
      <trkpt lat="49.036483374751185" lon="10.696573086377416">
        <ele>495.97868265993066</ele>
      </trkpt>
      <trkpt lat="49.03645704825054" lon="10.69588836417194">
        <ele>494.0188448600473</ele>
      </trkpt>
      <trkpt lat="49.036430721749895" lon="10.695203641966463">
        <ele>492.2765394355645</ele>
      </trkpt>
      <trkpt lat="49.03640439524925" lon="10.694518919760986">
        <ele>490.73338202405415</ele>
      </trkpt>
      <trkpt lat="49.036378068748604" lon="10.693834197555509">
        <ele>489.49192866096337</ele>
      </trkpt>
      <trkpt lat="49.03635174224796" lon="10.693149475350033">
        <ele>489.77788415039066</ele>
      </trkpt>
      <trkpt lat="49.036325415747314" lon="10.692464753144556">
        <ele>491.29268201459314</ele>
      </trkpt>
      <trkpt lat="49.0363162037103" lon="10.692225158585984">
        <ele>491.9095824678434</ele>
      </trkpt>
      <trkpt lat="49.0363162037103" lon="10.692225158585984">
        <ele>491.9095824678434</ele>
      </trkpt>
      <trkpt lat="49.036752303570054" lon="10.692057983250647">
        <ele>492.5155229199222</ele>
      </trkpt>
      <trkpt lat="49.03718840342981" lon="10.691890807915309">
        <ele>493.33301399792583</ele>
      </trkpt>
      <trkpt lat="49.037509122166" lon="10.691767862995533">
        <ele>493.52971077719303</ele>
      </trkpt>
      <trkpt lat="49.037509122166" lon="10.691767862995533">
        <ele>493.52971077719303</ele>
      </trkpt>
      <trkpt lat="49.03775475190694" lon="10.691193323532229">
        <ele>494.21627460615787</ele>
      </trkpt>
      <trkpt lat="49.038000381647876" lon="10.690618784068926">
        <ele>495.10831798021775</ele>
      </trkpt>
      <trkpt lat="49.038246011388814" lon="10.690044244605621">
        <ele>496.97552870990353</ele>
      </trkpt>
      <trkpt lat="49.03849164112975" lon="10.689469705142317">
        <ele>499.99794801831536</ele>
      </trkpt>
      <trkpt lat="49.03866523710781" lon="10.689063656022682">
        <ele>502.0643008132679</ele>
      </trkpt>
      <trkpt lat="49.038932" lon="10.688871">
        <ele>497.09034482846636</ele>
      </trkpt>
      <trkpt lat="49.038932" lon="10.688871">
        <ele>510.64</ele>
      </trkpt>
      <trkpt lat="49.038932" lon="10.688871">
        <ele>497.09034482846636</ele>
      </trkpt>
      <trkpt lat="49.03938017278165" lon="10.688926747810378">
        <ele>492.30809430921965</ele>
      </trkpt>
      <trkpt lat="49.0398283455633" lon="10.688982495620754">
        <ele>490.0633562505247</ele>
      </trkpt>
      <trkpt lat="49.040276518344946" lon="10.689038243431131">
        <ele>487.5323812745802</ele>
      </trkpt>
      <trkpt lat="49.0407246911266" lon="10.68909399124151">
        <ele>487.48012055365865</ele>
      </trkpt>
      <trkpt lat="49.041172863908244" lon="10.689149739051887">
        <ele>487.13000252749987</ele>
      </trkpt>
      <trkpt lat="49.0416210366899" lon="10.689205486862264">
        <ele>486.94592757318196</ele>
      </trkpt>
      <trkpt lat="49.04206920947154" lon="10.68926123467264">
        <ele>486.7160257597462</ele>
      </trkpt>
      <trkpt lat="49.042517382253195" lon="10.689316982483017">
        <ele>485.72259482347954</ele>
      </trkpt>
      <trkpt lat="49.04296555503484" lon="10.689372730293394">
        <ele>484.5179954551629</ele>
      </trkpt>
      <trkpt lat="49.04335973552031" lon="10.689421762050472">
        <ele>483.85200496439444</ele>
      </trkpt>
      <trkpt lat="49.04335973552031" lon="10.689421762050472">
        <ele>483.85200496439444</ele>
      </trkpt>
      <trkpt lat="49.04330049271537" lon="10.688741749724068">
        <ele>485.38786205675257</ele>
      </trkpt>
      <trkpt lat="49.04324124991043" lon="10.688061737397664">
        <ele>487.2221139844514</ele>
      </trkpt>
      <trkpt lat="49.04319071327873" lon="10.687481657968249">
        <ele>497.44923699032927</ele>
      </trkpt>
      <trkpt lat="49.04327003980839" lon="10.68732529741726">
        <ele>504.04717491099245</ele>
      </trkpt>
      <trkpt lat="49.04327003980839" lon="10.68732529741726">
        <ele>504.04717491099245</ele>
      </trkpt>
      <trkpt lat="49.043208538955554" lon="10.686890355717964">
        <ele>513.1844948169694</ele>
      </trkpt>
      <trkpt lat="49.043208538955554" lon="10.686890355717964">
        <ele>513.1844948169694</ele>
      </trkpt>
      <trkpt lat="49.04321685492761" lon="10.686637664363701">
        <ele>514.522606142192</ele>
      </trkpt>
      <trkpt lat="49.04321685492761" lon="10.686637664363701">
        <ele>514.522606142192</ele>
      </trkpt>
      <trkpt lat="49.04329637346757" lon="10.686355773163314">
        <ele>514.9900017985152</ele>
      </trkpt>
      <trkpt lat="49.04329637346757" lon="10.686355773163314">
        <ele>514.9900017985152</ele>
      </trkpt>
      <trkpt lat="49.04329637346757" lon="10.686355773163314">
        <ele>514.9900017985152</ele>
      </trkpt>
      <trkpt lat="49.043364572681185" lon="10.686106413951876">
        <ele>514.9613213118176</ele>
      </trkpt>
      <trkpt lat="49.04346632428235" lon="10.685500886523386">
        <ele>514.2934130561002</ele>
      </trkpt>
      <trkpt lat="49.04346632428235" lon="10.685500886523386">
        <ele>514.2934130561002</ele>
      </trkpt>
      <trkpt lat="49.043456874393996" lon="10.685179420495189">
        <ele>514.8025516122296</ele>
      </trkpt>
      <trkpt lat="49.043456874393996" lon="10.685179420495189">
        <ele>514.8025516122296</ele>
      </trkpt>
      <trkpt lat="49.043860833970456" lon="10.684898645240537">
        <ele>511.2806700940454</ele>
      </trkpt>
      <trkpt lat="49.043860833970456" lon="10.684898645240537">
        <ele>511.2806700940454</ele>
      </trkpt>
      <trkpt lat="49.044252270680246" lon="10.68456103025799">
        <ele>508.861197800816</ele>
      </trkpt>
      <trkpt lat="49.04464370739003" lon="10.684223415275442">
        <ele>510.7329822838285</ele>
      </trkpt>
      <trkpt lat="49.04503514409982" lon="10.683885800292895">
        <ele>509.9880901736609</ele>
      </trkpt>
      <trkpt lat="49.04542658080961" lon="10.683548185310348">
        <ele>508.4372638798569</ele>
      </trkpt>
      <trkpt lat="49.0458180175194" lon="10.683210570327802">
        <ele>509.96347535310815</ele>
      </trkpt>
      <trkpt lat="49.04610906443719" lon="10.682959541751245">
        <ele>511.0285612321502</ele>
      </trkpt>
      <trkpt lat="49.04610906443719" lon="10.682959541751245">
        <ele>511.0285612321502</ele>
      </trkpt>
      <trkpt lat="49.046119" lon="10.682971">
        <ele>505.76</ele>
      </trkpt>
      <trkpt lat="49.046998" lon="10.681251">
        <ele>506.05</ele>
      </trkpt>
      <trkpt lat="49.047167" lon="10.681034">
        <ele>506.1</ele>
      </trkpt>
      <trkpt lat="49.047696" lon="10.68069">
        <ele>505.94</ele>
      </trkpt>
      <trkpt lat="49.047777" lon="10.680497">
        <ele>506.29</ele>
      </trkpt>
      <trkpt lat="49.047531" lon="10.677544">
        <ele>505.98</ele>
      </trkpt>
      <trkpt lat="49.047533" lon="10.677314">
        <ele>506.99</ele>
      </trkpt>
      <trkpt lat="49.048171" lon="10.676931">
        <ele>504.54</ele>
      </trkpt>
      <trkpt lat="49.048171" lon="10.676931">
        <ele>504.54</ele>
      </trkpt>
      <trkpt lat="49.0514" lon="10.674995">
        <ele>492.13</ele>
      </trkpt>
      <trkpt lat="49.051419" lon="10.674983">
        <ele>492.06</ele>
      </trkpt>
      <trkpt lat="49.051374" lon="10.672898">
        <ele>490.06</ele>
      </trkpt>
      <trkpt lat="49.05137372202191" lon="10.67289849833503">
        <ele>489.17198245539396</ele>
      </trkpt>
      <trkpt lat="49.0518176004214" lon="10.672788825483934">
        <ele>488.60917021986137</ele>
      </trkpt>
      <trkpt lat="49.0522614788209" lon="10.672679152632838">
        <ele>487.3923619839045</ele>
      </trkpt>
      <trkpt lat="49.0527053572204" lon="10.672569479781743">
        <ele>486.7383344552056</ele>
      </trkpt>
      <trkpt lat="49.052783923147956" lon="10.672550067822783">
        <ele>486.5059825255045</ele>
      </trkpt>
      <trkpt lat="49.052783923147956" lon="10.672550067822783">
        <ele>486.5059825255045</ele>
      </trkpt>
      <trkpt lat="49.05322859270974" lon="10.67244812636523">
        <ele>484.88560542347983</ele>
      </trkpt>
      <trkpt lat="49.05367326227154" lon="10.67234618490768">
        <ele>482.41641840766727</ele>
      </trkpt>
      <trkpt lat="49.054117931833325" lon="10.672244243450127">
        <ele>481.3367272976045</ele>
      </trkpt>
      <trkpt lat="49.05438152018547" lon="10.672183815251032">
        <ele>480.88822139975576</ele>
      </trkpt>
      <trkpt lat="49.05438152018547" lon="10.672183815251032">
        <ele>480.88822139975576</ele>
      </trkpt>
      <trkpt lat="49.05445517137889" lon="10.671650930195511">
        <ele>479.53330924760144</ele>
      </trkpt>
      <trkpt lat="49.05445517137889" lon="10.671650930195511">
        <ele>479.53330924760144</ele>
      </trkpt>
      <trkpt lat="49.05445517137889" lon="10.671650930195511">
        <ele>479.53330924760144</ele>
      </trkpt>
      <trkpt lat="49.05450772679353" lon="10.671035644459295">
        <ele>478.5</ele>
      </trkpt>
      <trkpt lat="49.05450772679353" lon="10.671035644459295">
        <ele>478.5</ele>
      </trkpt>
      <trkpt lat="49.0545245258703" lon="10.670349975978764">
        <ele>477.42516665733467</ele>
      </trkpt>
      <trkpt lat="49.05454132494707" lon="10.669664307498236">
        <ele>475.8198551540243</ele>
      </trkpt>
      <trkpt lat="49.05455743287641" lon="10.669006848782601">
        <ele>474.42213945470644</ele>
      </trkpt>
      <trkpt lat="49.05454911463322" lon="10.668320818483892">
        <ele>473.8026674828969</ele>
      </trkpt>
      <trkpt lat="49.05454079639003" lon="10.667634788185183">
        <ele>473.1667422546142</ele>
      </trkpt>
      <trkpt lat="49.05454045450828" lon="10.667606592178345">
        <ele>473.1208984375004</ele>
      </trkpt>
      <trkpt lat="49.05454045450828" lon="10.667606592178345">
        <ele>473.1208984375004</ele>
      </trkpt>
      <trkpt lat="49.05454045450828" lon="10.667606592178345">
        <ele>473.1208984375004</ele>
      </trkpt>
      <trkpt lat="49.054543496947154" lon="10.666920460250237">
        <ele>471.68918729260577</ele>
      </trkpt>
      <trkpt lat="49.05454608227231" lon="10.666337416774894">
        <ele>470.91354967523444</ele>
      </trkpt>
      <trkpt lat="49.05454608227231" lon="10.666337416774894">
        <ele>470.91354967523444</ele>
      </trkpt>
      <trkpt lat="49.054254164926476" lon="10.66602929467956">
        <ele>470.8890103158738</ele>
      </trkpt>
      <trkpt lat="49.054254164926476" lon="10.66602929467956">
        <ele>470.8890103158738</ele>
      </trkpt>
      <trkpt lat="49.05419600731784" lon="10.665919130247403">
        <ele>471.1257523499438</ele>
      </trkpt>
      <trkpt lat="49.05419600731784" lon="10.665919130247403">
        <ele>471.1257523499438</ele>
      </trkpt>
      <trkpt lat="49.05412982788789" lon="10.665619238182131">
        <ele>471.026186157123</ele>
      </trkpt>
      <trkpt lat="49.054122984825874" lon="10.665396451950075">
        <ele>470.80624999993114</ele>
      </trkpt>
      <trkpt lat="49.054122984825874" lon="10.665396451950075">
        <ele>470.80624999993114</ele>
      </trkpt>
      <trkpt lat="49.05409310265098" lon="10.664682984352112">
        <ele>469.3875000000008</ele>
      </trkpt>
      <trkpt lat="49.0542407555755" lon="10.664540827274324">
        <ele>468.4687499999768</ele>
      </trkpt>
      <trkpt lat="49.054696015998616" lon="10.664369165897371">
        <ele>467.6605468749585</ele>
      </trkpt>
      <trkpt lat="49.05490870380211" lon="10.664304792881014">
        <ele>467.62187500002375</ele>
      </trkpt>
      <trkpt lat="49.05493155450374" lon="10.664259195327759">
        <ele>467.58203125002933</ele>
      </trkpt>
      <trkpt lat="49.05493155450374" lon="10.664259195327759">
        <ele>467.58203125002933</ele>
      </trkpt>
      <trkpt lat="49.05493155450374" lon="10.664259195327759">
        <ele>467.58203125002933</ele>
      </trkpt>
      <trkpt lat="49.05487986957999" lon="10.66383128124744">
        <ele>466.88911374732396</ele>
      </trkpt>
    </trkseg>
  </trk>
</gpx>
